"CompanyID","CompanyName","CompanySite","PhoneNumber","City","Zip","DateCreated","Type"
"15522","Adecco Staffing USA","","","","","12/3/2014 3:01:19 AM","None"
"15523","Aditi Staffing","","","","","12/3/2014 3:01:19 AM","None"
"15524","ADP","","","","","12/3/2014 3:01:19 AM","None"
"15527","Advanced Systems Group","","","","","12/3/2014 3:01:19 AM","None"
"15528","Advanced Technologies Solutions","","","","","12/3/2014 3:01:19 AM","None"
"15529","Advantage Resourcing","","","","","12/3/2014 3:01:19 AM","None"
"15530","Advocare","","","","","12/3/2014 3:01:19 AM","None"
"15531","AECOM","","","","","12/3/2014 3:01:19 AM","None"
"15532","Aerotek","","","","","12/3/2014 3:01:19 AM","None"
"15533","Aerotek Scientific","","","","","12/3/2014 3:01:20 AM","None"
"15534","AET Talent Sourcing & Acquisition","","","","","12/3/2014 3:01:20 AM","None"
"15535","Agrium","","","","","12/3/2014 3:01:20 AM","None"
"15536","Agrium Advanced Technologies Inc.","","","","","12/3/2014 3:01:20 AM","None"
"15537","Agrium Inc","","","","","12/3/2014 3:01:20 AM","None"
"15538","AIM CEO Roundtable","","","","","12/3/2014 3:01:20 AM","None"
"15539","Aimco","","","","","12/3/2014 3:01:20 AM","None"
"15540","Air Methods","","","","","12/3/2014 3:01:20 AM","None"
"15541","Airbnb","","","","","12/3/2014 3:01:20 AM","None"
"15543","Aita Consulting Services","","","","","12/3/2014 3:01:20 AM","None"
"15545","Akebono Brake Corporation","","","","","12/3/2014 3:01:20 AM","None"
"15547","Aleut Management Services","","","","","12/3/2014 3:01:20 AM","None"
"15548","Alfalfa&#39;s Market Inc","","","","","12/3/2014 3:01:20 AM","None"
"15549","Alfson Energy Land Services","","","","","12/3/2014 3:01:20 AM","None"
"15550","All Locations","","","","","12/3/2014 3:01:20 AM","None"
"15551","Allied Mountain LLC - (a Service Disabled Veteran ","","","","","12/3/2014 3:01:20 AM","None"
"15552","AlloSource","","","","","12/3/2014 3:01:20 AM","None"
"15553","Allstate","","","","","12/3/2014 3:01:20 AM","None"
"15555","Amazon.com","","","","","12/3/2014 3:01:20 AM","None"
"15558","AMER Technology Inc.","","","","","12/3/2014 3:01:20 AM","None"
"15561","American Exteriors LLC","","","","","12/3/2014 3:01:20 AM","None"
"15562","American Family Insurance","","","","","12/3/2014 3:01:20 AM","None"
"15563","American Lung Association","","","","","12/3/2014 3:01:20 AM","None"
"15564","American Midstream LLC","","","","","12/3/2014 3:01:20 AM","None"
"15565","American Outdoor Products Inc.","","","","","12/3/2014 3:01:20 AM","None"
"15566","American Recreation Products","","","","","12/3/2014 3:01:20 AM","None"
"15567","American Red Cross","","","","","12/3/2014 3:01:20 AM","None"
"15568","American Republic Insurance Services","","","","","12/3/2014 3:01:20 AM","None"
"15569","American Sentinel University","","","","","12/3/2014 3:01:20 AM","None"
"15570","AMG National Trust Bank","","","","","12/3/2014 3:01:20 AM","None"
"15571","Anadarko Petroleum Corporation","","","","","12/3/2014 3:01:20 AM","None"
"15572","Anderson Knight","","","","","12/3/2014 3:01:20 AM","None"
"15573","Anderson Recruiting","","","","","12/3/2014 3:01:20 AM","None"
"15574","Anderson Recruiting + Consulting","","","","","12/3/2014 3:01:20 AM","None"
"15575","Animal Health International Inc.","","","","","12/3/2014 3:01:20 AM","None"
"15576","APi International LLC A Subsidiary of Western Stat","","","","","12/3/2014 3:01:20 AM","None"
"15577","APN Consulting Inc.","","","","","12/3/2014 3:01:20 AM","None"
"15578","Appliance Factory Outlet","","","","","12/3/2014 3:01:20 AM","None"
"15579","Apprentice Personnel","","","","","12/3/2014 3:01:20 AM","None"
"15580","Apria Healthcare","","","","","12/3/2014 3:01:20 AM","None"
"15581","Arapahoe Credit Union","","","","","12/3/2014 3:01:20 AM","None"
"15582","ARCADIS","","","","","12/3/2014 3:01:20 AM","None"
"15583","ARCADIS U.S.","","","","","12/3/2014 3:01:20 AM","None"
"15584","Archstone","","","","","12/3/2014 3:01:20 AM","None"
"15585","Arctic Energy Services","","","","","12/3/2014 3:01:20 AM","None"
"15586","ARENDAL S. DE R.L. DE C.V.","","","","","12/3/2014 3:01:20 AM","None"
"15587","Areoflex RAD","","","","","12/3/2014 3:01:20 AM","None"
"15588","Aries Group LLC","","","","","12/3/2014 3:01:20 AM","None"
"15589","Arisant LLC","","","","","12/3/2014 3:01:20 AM","None"
"15590","Arizona Partners Retail Investment Group LLC","","","","","12/3/2014 3:01:20 AM","None"
"15591","Arizona Public Service (APS)","","","","","12/3/2014 3:01:20 AM","None"
"15592","Arrow Electronics","","","","","12/3/2014 3:01:20 AM","None"
"15593","Artech Information Systems","","","","","12/3/2014 3:01:20 AM","None"
"15594","Arthur Rose Associates","","","","","12/3/2014 3:01:20 AM","None"
"15595","Artifex IT Solutions","","","","","12/3/2014 3:01:20 AM","None"
"15596","Ascendum","","","","","12/3/2014 3:01:20 AM","None"
"15597","Ascent Solar Technologies Inc.","","","","","12/3/2014 3:01:20 AM","None"
"15598","ASFP Inc.","","","","","12/3/2014 3:01:20 AM","None"
"15599","ASISPET/Pemex","","","","","12/3/2014 3:01:20 AM","None"
"15600","Aspenware","","","","","12/3/2014 3:01:20 AM","None"
"15601","Assured Ventures LLC","","","","","12/3/2014 3:01:20 AM","None"
"15602","AT&T","","","","","12/3/2014 3:01:20 AM","None"
"15603","Atamir (ATA/Miratek)","","","","","12/3/2014 3:01:20 AM","None"
"15604","Atkins","","","","","12/3/2014 3:01:20 AM","None"
"15605","Atlanta Recruiting Group","","","","","12/3/2014 3:01:20 AM","None"
"15606","Atlas Logistsics","","","","","12/3/2014 3:01:20 AM","None"
"15607","Atlas Pipeline Mid-Continent","","","","","12/3/2014 3:01:20 AM","None"
"15608","Atlas Systems","","","","","12/3/2014 3:01:20 AM","None"
"15609","Atna Resources Ltd","","","","","12/3/2014 3:01:20 AM","None"
"15610","ATNI - Associated Tele-Networking Inc. www.atni.us","","","","","12/3/2014 3:01:20 AM","None"
"15611","Atrilogy Solutions Group","","","","","12/3/2014 3:01:20 AM","None"
"15612","ATT Mobility","","","","","12/3/2014 3:01:20 AM","None"
"15613","Audubon Engineering Operations LLC","","","","","12/3/2014 3:01:20 AM","None"
"15614","Auer Woodley Hilderbrand & Sanders","","","","","12/3/2014 3:01:20 AM","None"
"15615","Aureus Tech Systems LLC","","","","","12/3/2014 3:01:20 AM","None"
"15616","Avanade","","","","","12/3/2014 3:01:20 AM","None"
"15617","Avanti","","","","","12/3/2014 3:01:20 AM","None"
"15618","Avention","","","","","12/3/2014 3:01:20 AM","None"
"15619","Avivid Technologies","","","","","12/3/2014 3:01:20 AM","None"
"15620","Avnet","","","","","12/3/2014 3:01:20 AM","None"
"15621","Avnet Technology Solutions","","","","","12/3/2014 3:01:20 AM","None"
"15622","Avon","","","","","12/3/2014 3:01:20 AM","None"
"15623","AZAD Technology Partners","","","","","12/3/2014 3:01:20 AM","None"
"15624","Baker Hughes","","","","","12/3/2014 3:01:20 AM","None"
"15625","BalancePoint Corporation","","","","","12/3/2014 3:01:20 AM","None"
"15626","Ball Aerospace","","","","","12/3/2014 3:01:20 AM","None"
"15627","Ball Corporation","","","","","12/3/2014 3:01:20 AM","None"
"15628","Bank of England Mortgage Division","","","","","12/3/2014 3:01:20 AM","None"
"15629","Bank of the West","","","","","12/3/2014 3:01:20 AM","None"
"15630","Banner Health","","","","","12/3/2014 3:01:20 AM","None"
"15631","Barclays","","","","","12/3/2014 3:01:20 AM","None"
"15632","Bartlett Grain Co","","","","","12/3/2014 3:01:20 AM","None"
"15633","Bath Fitter","","","","","12/3/2014 3:01:20 AM","None"
"15634","Baylor Scott & White Health","","","","","12/3/2014 3:01:20 AM","None"
"15635","Baylor Scott and White Health","","","","","12/3/2014 3:01:20 AM","None"
"15636","Beacon Hill Staffing Group","","","","","12/3/2014 3:01:20 AM","None"
"15637","Bechtel Oil Gas & Chemicals","","","","","12/3/2014 3:01:20 AM","None"
"15638","Beckman Coulter","","","","","12/3/2014 3:01:20 AM","None"
"15639","Belair Excavating","","","","","12/3/2014 3:01:20 AM","None"
"15640","Belinda Schultz Inc.","","","","","12/3/2014 3:01:20 AM","None"
"15641","Berkshire Associates Inc.","","","","","12/3/2014 3:01:20 AM","None"
"15642","Bernard Data Solutions","","","","","12/3/2014 3:01:20 AM","None"
"15643","Best Accounting LLC","","","","","12/3/2014 3:01:20 AM","None"
"15644","BEX GROUP LLC","","","","","12/3/2014 3:01:20 AM","None"
"15645","Beztak Corporation","","","","","12/3/2014 3:01:20 AM","None"
"15646","BI Incorporated","","","","","12/3/2014 3:01:20 AM","None"
"15647","Binary Global Limited","","","","","12/3/2014 3:01:20 AM","None"
"15648","Biodesix Inc","","","","","12/3/2014 3:01:20 AM","None"
"15649","Biomet","","","","","12/3/2014 3:01:20 AM","None"
"15650","BioSpace Inc. (a Dice Holdings Company)","","","","","12/3/2014 3:01:20 AM","None"
"15651","Bison Oil Well Cementing","","","","","12/3/2014 3:01:20 AM","None"
"15652","Bit Love Media","","","","","12/3/2014 3:01:20 AM","None"
"15653","BIZCATALYST 360","","","","","12/3/2014 3:01:20 AM","None"
"15654","BLACKHAWK Inspection Services LLC","","","","","12/3/2014 3:01:20 AM","None"
"15655","Blackhawk Network","","","","","12/3/2014 3:01:20 AM","None"
"15656","Blackstone Technology Group","","","","","12/3/2014 3:01:20 AM","None"
"15657","Blue Mountain Arts","","","","","12/3/2014 3:01:20 AM","None"
"15658","Blueline Consulting","","","","","12/3/2014 3:01:20 AM","None"
"15659","BMM International","","","","","12/3/2014 3:01:20 AM","None"
"15660","BNG Holdings Inc.","","","","","12/3/2014 3:01:20 AM","None"
"15661","Boeing","","","","","12/3/2014 3:01:20 AM","None"
"15662","Bolder Products LLC","","","","","12/3/2014 3:01:20 AM","None"
"15663","Bolder Professional Placements (BP2)","","","","","12/3/2014 3:01:20 AM","None"
"15664","Bolder Staffing Inc.","","","","","12/3/2014 3:01:20 AM","None"
"15665","BoldHR","","","","","12/3/2014 3:01:20 AM","None"
"15666","Bonanza Creek Energy","","","","","12/3/2014 3:01:20 AM","None"
"15667","Bonanza Creek Energy Inc.","","","","","12/3/2014 3:01:20 AM","None"
"15668","Boots UK","","","","","12/3/2014 3:01:20 AM","None"
"15669","Borderless Executive Search","","","","","12/3/2014 3:01:20 AM","None"
"15670","Boulder Chamber of Commerce","","","","","12/3/2014 3:01:20 AM","None"
"15671","Boulder CO","","","","","12/3/2014 3:01:20 AM","None"
"15672","Boulder County","","","","","12/3/2014 3:01:20 AM","None"
"15673","Boulder County Department of Housing and Human Ser","","","","","12/3/2014 3:01:20 AM","None"
"15674","Boulder County Latino Chamber of Commerce","","","","","12/3/2014 3:01:21 AM","None"
"15675","Boulder Scientific Company","","","","","12/3/2014 3:01:21 AM","None"
"15676","Boulder Small Business Development Center","","","","","12/3/2014 3:01:21 AM","None"
"15677","Boulder-based CPA Firm","","","","","12/3/2014 3:01:21 AM","None"
"15678","bounce.io","","","","","12/3/2014 3:01:21 AM","None"
"15679","BP Wind","","","","","12/3/2014 3:01:21 AM","None"
"15680","Bradbury Stamm Construction","","","","","12/3/2014 3:01:21 AM","None"
"15681","Bradsby Group","","","","","12/3/2014 3:01:21 AM","None"
"15682","Brain Gain Recruiting","","","","","12/3/2014 3:01:21 AM","None"
"15683","Brandwise Inc","","","","","12/3/2014 3:01:21 AM","None"
"15684","Brian Shaltakoff CPA & Co. PLLC","","","","","12/3/2014 3:01:21 AM","None"
"15685","BrightPath Partners","","","","","12/3/2014 3:01:21 AM","None"
"15686","Brite-Line Technologies","","","","","12/3/2014 3:01:21 AM","None"
"15687","Brocade","","","","","12/3/2014 3:01:21 AM","None"
"15688","Bross Group","","","","","12/3/2014 3:01:21 AM","None"
"15689","Brown and Caldwell","","","","","12/3/2014 3:01:21 AM","None"
"15690","BT Conferencing","","","","","12/3/2014 3:01:21 AM","None"
"15691","Bucher Emhart Glass","","","","","12/3/2014 3:01:21 AM","None"
"15692","Buffalo CarShare","","","","","12/3/2014 3:01:21 AM","None"
"15693","BungoBox: Rental Plastic Moving Boxes for Commerci","","","","","12/3/2014 3:01:21 AM","None"
"15694","BWBacon","","","","","12/3/2014 3:01:21 AM","None"
"15695","Cabela&#39;s","","","","","12/3/2014 3:01:21 AM","None"
"15696","Caelus Inc  A subsidary of Oceanus Group","","","","","12/3/2014 3:01:21 AM","None"
"15697","CAK Consulting","","","","","12/3/2014 3:01:21 AM","None"
"15698","Calfrac","","","","","12/3/2014 3:01:21 AM","None"
"15699","Calfrac Well Services","","","","","12/3/2014 3:01:21 AM","None"
"15700","Caliber Home Loans","","","","","12/3/2014 3:01:21 AM","None"
"15701","California Casualty Management Company","","","","","12/3/2014 3:01:21 AM","None"
"15702","Call Center /QA/Compliance","","","","","12/3/2014 3:01:21 AM","None"
"15703","Canary LLC","","","","","12/3/2014 3:01:21 AM","None"
"15704","Cancer Treatment Centers of America","","","","","12/3/2014 3:01:21 AM","None"
"15705","Canidium LLC","","","","","12/3/2014 3:01:21 AM","None"
"15706","Canonical Ltd.","","","","","12/3/2014 3:01:21 AM","None"
"15707","Capistrano Unified School District","","","","","12/3/2014 3:01:21 AM","None"
"15708","Capital Pressure","","","","","12/3/2014 3:01:21 AM","None"
"15709","Caplan and Earnest LLC","","","","","12/3/2014 3:01:21 AM","None"
"15710","CardinalCommerce","","","","","12/3/2014 3:01:21 AM","None"
"15711","Care.com","","","","","12/3/2014 3:01:21 AM","None"
"15712","CareerBuilder.com","","","","","12/3/2014 3:01:21 AM","None"
"15713","CareerBum","","","","","12/3/2014 3:01:21 AM","None"
"15714","CaridianBCT","","","","","12/3/2014 3:01:21 AM","None"
"15715","Carter Mackenzie International (FKA AJS Partners)","","","","","12/3/2014 3:01:21 AM","None"
"15716","Castle Rock Public Works Commission","","","","","12/3/2014 3:01:21 AM","None"
"15717","Caterpillar Inc.","","","","","12/3/2014 3:01:21 AM","None"
"15718","Catholic Health Initiatives","","","","","12/3/2014 3:01:21 AM","None"
"15719","CBRE","","","","","12/3/2014 3:01:21 AM","None"
"15720","CBRE Inc","","","","","12/3/2014 3:01:21 AM","None"
"15721","CCI","","","","","12/3/2014 3:01:21 AM","None"
"15722","CDI Corporation","","","","","12/3/2014 3:01:21 AM","None"
"15723","CECOR Staffing a division of Essential Personnel","","","","","12/3/2014 3:01:21 AM","None"
"15724","CECOR Staffing Inc.","","","","","12/3/2014 3:01:21 AM","None"
"15725","Centennial Lending","","","","","12/3/2014 3:01:21 AM","None"
"15726","Centennial Resource Development LLC","","","","","12/3/2014 3:01:21 AM","None"
"15727","Center Partners","","","","","12/3/2014 3:01:21 AM","None"
"15728","Centers for Disease Control and Prevention","","","","","12/3/2014 3:01:21 AM","None"
"15729","Centura Health","","","","","12/3/2014 3:01:21 AM","None"
"15730","Centura Health - Porter Adventist Hospital","","","","","12/3/2014 3:01:21 AM","None"
"15731","Centura Health Physician Group","","","","","12/3/2014 3:01:21 AM","None"
"15732","CenturyLink","","","","","12/3/2014 3:01:21 AM","None"
"15733","CenturyLink / Pauley Construction","","","","","12/3/2014 3:01:21 AM","None"
"15734","CenturyLink Technology Solutions","","","","","12/3/2014 3:01:21 AM","None"
"15735","Certona","","","","","12/3/2014 3:01:21 AM","None"
"15736","CESA 6","","","","","12/3/2014 3:01:21 AM","None"
"15737","CFO Selections","","","","","12/3/2014 3:01:21 AM","None"
"15738","CGI","","","","","12/3/2014 3:01:21 AM","None"
"15739","CH2E","","","","","12/3/2014 3:01:21 AM","None"
"15740","CH2M HILL","","","","","12/3/2014 3:01:21 AM","None"
"15741","CH2M HILL (Agile1)","","","","","12/3/2014 3:01:21 AM","None"
"15742","Charles Schwab","","","","","12/3/2014 3:01:21 AM","None"
"15743","Charter Global","","","","","12/3/2014 3:01:21 AM","None"
"15744","Chase Edwards","","","","","12/3/2014 3:01:21 AM","None"
"15745","Check Into Cash","","","","","12/3/2014 3:01:21 AM","None"
"15746","Check-6 via Triple J Consulting","","","","","12/3/2014 3:01:21 AM","None"
"15747","Checkers Industrial Safety Products","","","","","12/3/2014 3:01:21 AM","None"
"15748","Chenega Corporation","","","","","12/3/2014 3:01:21 AM","None"
"15749","Cherry Creek Schools","","","","","12/3/2014 3:01:21 AM","None"
"15750","Cheryl A Herrington Income Tax Contracting","","","","","12/3/2014 3:01:21 AM","None"
"15751","Chetu Inc.","","","","","12/3/2014 3:01:21 AM","None"
"15752","Cheyenne Light Fuel & Power","","","","","12/3/2014 3:01:21 AM","None"
"15753","Children&#39;s Diabetes Foundation","","","","","12/3/2014 3:01:21 AM","None"
"15754","Children&#39;s Hospital Colorado","","","","","12/3/2014 3:01:21 AM","None"
"15755","Choose Growth","","","","","12/3/2014 3:01:21 AM","None"
"15756","Christian Growth College","","","","","12/3/2014 3:01:21 AM","None"
"15757","CIGNA Healthcare","","","","","12/3/2014 3:01:21 AM","None"
"15758","Circle Graphics","","","","","12/3/2014 3:01:21 AM","None"
"15759","CITGO Petroleum","","","","","12/3/2014 3:01:21 AM","None"
"15760","Citi Group","","","","","12/3/2014 3:01:21 AM","None"
"15761","Citihub","","","","","12/3/2014 3:01:21 AM","None"
"15762","City and County of Denver","","","","","12/3/2014 3:01:21 AM","None"
"15763","City of Boulder","","","","","12/3/2014 3:01:21 AM","None"
"15764","City of Commerce City","","","","","12/3/2014 3:01:21 AM","None"
"15765","City of Commerce City Colorado","","","","","12/3/2014 3:01:21 AM","None"
"15766","City of Fort Collins","","","","","12/3/2014 3:01:21 AM","None"
"15767","City of Loveland","","","","","12/3/2014 3:01:21 AM","None"
"15768","City of Thornton Colorado","","","","","12/3/2014 3:01:21 AM","None"
"15769","City of Vineland","","","","","12/3/2014 3:01:21 AM","None"
"15770","Citywide Banks","","","","","12/3/2014 3:01:21 AM","None"
"15771","Civeo","","","","","12/3/2014 3:01:21 AM","None"
"15772","Civergy Inc. & New West Technologies LLC","","","","","12/3/2014 3:01:21 AM","None"
"15773","Claremont Foods","","","","","12/3/2014 3:01:21 AM","None"
"15774","Clarity","","","","","12/3/2014 3:01:21 AM","None"
"15775","Clarus Group","","","","","12/3/2014 3:01:21 AM","None"
"15776","Clean Coal Solutions","","","","","12/3/2014 3:01:21 AM","None"
"15777","Clean Energy Collective","","","","","12/3/2014 3:01:21 AM","None"
"15778","ClientPerfect","","","","","12/3/2014 3:01:21 AM","None"
"15779","ClientSolv","","","","","12/3/2014 3:01:21 AM","None"
"15780","Clinica Family Health Services","","","","","12/3/2014 3:01:21 AM","None"
"15781","Cloud Drive LLC","","","","","12/3/2014 3:01:21 AM","None"
"15782","Cloud Real Estate Inc.","","","","","12/3/2014 3:01:21 AM","None"
"15783","CloudBlue Technologies an Ingram Micro company","","","","","12/3/2014 3:01:21 AM","None"
"15784","Club Audit & Assessment","","","","","12/3/2014 3:01:21 AM","None"
"15785","CMS Design LLC","","","","","12/3/2014 3:01:21 AM","None"
"15786","Coalfire Systems Inc.","","","","","12/3/2014 3:01:21 AM","None"
"15787","Cochlear","","","","","12/3/2014 3:01:21 AM","None"
"15788","CodeScience Inc.","","","","","12/3/2014 3:01:21 AM","None"
"15789","Codilis Stawiarski & Moody","","","","","12/3/2014 3:01:21 AM","None"
"15790","Coet 2 CPAs","","","","","12/3/2014 3:01:21 AM","None"
"15791","Cogent Healthcare","","","","","12/3/2014 3:01:21 AM","None"
"15792","Cognizant Technology Solutions","","","","","12/3/2014 3:01:21 AM","None"
"15793","Cole Capital an American Realty Capital Properties","","","","","12/3/2014 3:01:21 AM","None"
"15794","COLEHERNE LTD","","","","","12/3/2014 3:01:21 AM","None"
"15795","Colfax Corporation","","","","","12/3/2014 3:01:21 AM","None"
"15796","Colorado Access","","","","","12/3/2014 3:01:21 AM","None"
"15797","Colorado Department of Health Care Policy and Fina","","","","","12/3/2014 3:01:21 AM","None"
"15798","Colorado Department of Human Services","","","","","12/3/2014 3:01:21 AM","None"
"15799","Colorado Department of Labor and Employment","","","","","12/3/2014 3:01:21 AM","None"
"15800","Colorado Electronic Product Design","","","","","12/3/2014 3:01:21 AM","None"
"15801","Colorado Energy Management","","","","","12/3/2014 3:01:21 AM","None"
"15802","Colorado Heating and Cooling","","","","","12/3/2014 3:01:21 AM","None"
"15803","Colorado HR Consulting (303) 990.2379","","","","","12/3/2014 3:01:21 AM","None"
"15804","Colorado Job Base","","","","","12/3/2014 3:01:21 AM","None"
"15805","Colorado Medical Society","","","","","12/3/2014 3:01:21 AM","None"
"15806","Colorado Parks and Wildlife","","","","","12/3/2014 3:01:21 AM","None"
"15807","Colorado School of Mines","","","","","12/3/2014 3:01:21 AM","None"
"15808","Colorado SHRM State Council","","","","","12/3/2014 3:01:21 AM","None"
"15809","Colorado Springs Police Department","","","","","12/3/2014 3:01:21 AM","None"
"15810","Colorado Startup Incubator (CSI)","","","","","12/3/2014 3:01:21 AM","None"
"15811","Colorado Storm Soccer Association","","","","","12/3/2014 3:01:21 AM","None"
"15812","Colorado Workforce Development Council","","","","","12/3/2014 3:01:21 AM","None"
"15813","Columbine Health Systems","","","","","12/3/2014 3:01:21 AM","None"
"15814","Comcast","","","","","12/3/2014 3:01:21 AM","None"
"15815","Comcast Cable","","","","","12/3/2014 3:01:21 AM","None"
"15816","Comcast Spotlight","","","","","12/3/2014 3:01:22 AM","None"
"15817","CommandHealth","","","","","12/3/2014 3:01:22 AM","None"
"15818","Commercial Credit Management Associates","","","","","12/3/2014 3:01:22 AM","None"
"15819","Common Good IT","","","","","12/3/2014 3:01:22 AM","None"
"15820","Communications Plus  O2 Telefonica","","","","","12/3/2014 3:01:22 AM","None"
"15821","Communisis Limited","","","","","12/3/2014 3:01:22 AM","None"
"15822","CommVault","","","","","12/3/2014 3:01:22 AM","None"
"15823","Compass Ocean Logistics","","","","","12/3/2014 3:01:22 AM","None"
"15824","Compel Consulting LLC","","","","","12/3/2014 3:01:22 AM","None"
"15825","Complete Energy Services - Well Service Division","","","","","12/3/2014 3:01:22 AM","None"
"15826","Complete Energy Services- Fluid Management Divisio","","","","","12/3/2014 3:01:22 AM","None"
"15827","Compri Consulting","","","","","12/3/2014 3:01:22 AM","None"
"15828","Comstor","","","","","12/3/2014 3:01:22 AM","None"
"15829","Comunidad Cristiana","","","","","12/3/2014 3:01:22 AM","None"
"15830","Condor Petroleum","","","","","12/3/2014 3:01:22 AM","None"
"15831","Conergy","","","","","12/3/2014 3:01:22 AM","None"
"15832","Confidental","","","","","12/3/2014 3:01:22 AM","None"
"15833","Confidential IT Company","","","","","12/3/2014 3:01:22 AM","None"
"15834","Connect for Health Colorado","","","","","12/3/2014 3:01:22 AM","None"
"15835","Connextions","","","","","12/3/2014 3:01:22 AM","None"
"15836","Construction Concepts Inc.","","","","","12/3/2014 3:01:22 AM","None"
"15837","Consultant","","","","","12/3/2014 3:01:22 AM","None"
"15838","Consultant Self employed","","","","","12/3/2014 3:01:22 AM","None"
"15839","Contact Center","","","","","12/3/2014 3:01:22 AM","None"
"15840","Continuum Pty Ltd","","","","","12/3/2014 3:01:22 AM","None"
"15841","Continuum Recruitment Pty Ltd","","","","","12/3/2014 3:01:22 AM","None"
"15842","Contract","","","","","12/3/2014 3:01:22 AM","None"
"15843","Contract recruiting at Self","","","","","12/3/2014 3:01:22 AM","None"
"15844","Contractor","","","","","12/3/2014 3:01:22 AM","None"
"15845","Control Union","","","","","12/3/2014 3:01:22 AM","None"
"15846","Convercent","","","","","12/3/2014 3:01:22 AM","None"
"15847","Convergence Technology Consulting","","","","","12/3/2014 3:01:22 AM","None"
"15848","Conway Consulting LLC","","","","","12/3/2014 3:01:22 AM","None"
"15849","Con-way Inc","","","","","12/3/2014 3:01:22 AM","None"
"15850","Cool Planet Energy Systems Inc.","","","","","12/3/2014 3:01:22 AM","None"
"15851","Cooper Lighting","","","","","12/3/2014 3:01:22 AM","None"
"15852","Core Construction Products","","","","","12/3/2014 3:01:22 AM","None"
"15853","Corinthian Colleges Inc.","","","","","12/3/2014 3:01:22 AM","None"
"15854","Cornerstone OnDemand","","","","","12/3/2014 3:01:22 AM","None"
"15855","Corporate Resource Services","","","","","12/3/2014 3:01:22 AM","None"
"15856","CounterTrade Products Inc.","","","","","12/3/2014 3:01:22 AM","None"
"15857","County Technical Services Inc.","","","","","12/3/2014 3:01:22 AM","None"
"15858","Covidien","","","","","12/3/2014 3:01:22 AM","None"
"15859","CoWorx Staffing Services LLC","","","","","12/3/2014 3:01:22 AM","None"
"15860","Coyote Ugly Saloon","","","","","12/3/2014 3:01:22 AM","None"
"15861","Craftsy","","","","","12/3/2014 3:01:22 AM","None"
"15862","crank brothers inc","","","","","12/3/2014 3:01:22 AM","None"
"15863","Crawford Consulting Services Inc.","","","","","12/3/2014 3:01:22 AM","None"
"15864","Crazy Good Marketing","","","","","12/3/2014 3:01:22 AM","None"
"15865","Creative Alignments","","","","","12/3/2014 3:01:22 AM","None"
"15866","Creative Financial Staffing","","","","","12/3/2014 3:01:22 AM","None"
"15867","Creative Financial Staffing (CFS)","","","","","12/3/2014 3:01:22 AM","None"
"15868","Creaxle","","","","","12/3/2014 3:01:22 AM","None"
"15869","Credit Union of Colorado","","","","","12/3/2014 3:01:22 AM","None"
"15870","CreditRiskMonitor","","","","","12/3/2014 3:01:22 AM","None"
"15871","CreditRiskMonitor Inc.","","","","","12/3/2014 3:01:22 AM","None"
"15872","Cricket Communications","","","","","12/3/2014 3:01:22 AM","None"
"15873","Cricket Wireless","","","","","12/3/2014 3:01:22 AM","None"
"15874","Crispin Porter + Bogusky","","","","","12/3/2014 3:01:22 AM","None"
"15875","Crocs","","","","","12/3/2014 3:01:22 AM","None"
"15876","Crocs Asia","","","","","12/3/2014 3:01:22 AM","None"
"15877","Crocs Inc","","","","","12/3/2014 3:01:22 AM","None"
"15878","Croc&#39;s Inc","","","","","12/3/2014 3:01:22 AM","None"
"15879","Crocs Inc.","","","","","12/3/2014 3:01:22 AM","None"
"15880","Crop Production Services","","","","","12/3/2014 3:01:22 AM","None"
"15881","CSAA Insurance Group","","","","","12/3/2014 3:01:22 AM","None"
"15882","CSL Solutions LLC","","","","","12/3/2014 3:01:22 AM","None"
"15883","Cummins Inc.","","","","","12/3/2014 3:01:22 AM","None"
"15884","Cummins Rocky Mountain","","","","","12/3/2014 3:01:22 AM","None"
"15885","Cummins Rocky Mountain LLC","","","","","12/3/2014 3:01:22 AM","None"
"15886","Currently On A Personal Adventure","","","","","12/3/2014 3:01:22 AM","None"
"15887","Currently Seeking New Opportunities","","","","","12/3/2014 3:01:22 AM","None"
"15888","Currently unemployed - looking for a job","","","","","12/3/2014 3:01:22 AM","None"
"15889","CVS Caremark Corporation","","","","","12/3/2014 3:01:22 AM","None"
"15890","Cytec Industries (Aerospace)","","","","","12/3/2014 3:01:22 AM","None"
"15891","Cytec Industries Inc","","","","","12/3/2014 3:01:22 AM","None"
"15893","D.F. Autosales","","","","","12/3/2014 3:01:22 AM","None"
"15902","DaVita Healthcare Partners Inc.","","","","","12/3/2014 3:01:22 AM","None"
"15903","Dazy","","","","","12/3/2014 3:01:22 AM","None"
"15904","DC Dolphin Youth Sports","","","","","12/3/2014 3:01:22 AM","None"
"15910","Del Calzo & Assoc","","","","","12/3/2014 3:01:22 AM","None"
"15911","delascent consulting llc","","","","","12/3/2014 3:01:22 AM","None"
"15912","Dell","","","","","12/3/2014 3:01:22 AM","None"
"15913","Deloitte","","","","","12/3/2014 3:01:22 AM","None"
"15914","Delta Disaster Services","","","","","12/3/2014 3:01:22 AM","None"
"15915","Dental Solutions LLC","","","","","12/3/2014 3:01:22 AM","None"
"15916","Denver Colorado","","","","","12/3/2014 3:01:22 AM","None"
"15917","Denver Health","","","","","12/3/2014 3:01:22 AM","None"
"15918","Denver Public Library","","","","","12/3/2014 3:01:22 AM","None"
"15919","Denver Public Schools","","","","","12/3/2014 3:01:22 AM","None"
"15920","Denver Public Works","","","","","12/3/2014 3:01:22 AM","None"
"15921","Denver Technical Professionals Colorado Prestigiou","","","","","12/3/2014 3:01:22 AM","None"
"15922","Deployed Capital Properties LLC","","","","","12/3/2014 3:01:22 AM","None"
"15923","Design Mechanical Inc - Comfort Systems USA","","","","","12/3/2014 3:01:22 AM","None"
"15924","Devcon","","","","","12/3/2014 3:01:22 AM","None"
"15925","Diageo","","","","","12/3/2014 3:01:22 AM","None"
"15926","Dick&#39;s Sporting Goods","","","","","12/3/2014 3:01:22 AM","None"
"15927","Digital Globe","","","","","12/3/2014 3:01:23 AM","None"
"15928","Digital Rochester","","","","","12/3/2014 3:01:23 AM","None"
"15929","DigitalGlobe","","","","","12/3/2014 3:01:23 AM","None"
"15930","DigitalGlobe - GeoEye - Space Imaging (Mergers) (E","","","","","12/3/2014 3:01:23 AM","None"
"15931","DIRECTV","","","","","12/3/2014 3:01:23 AM","None"
"15932","DiscoverOrg","","","","","12/3/2014 3:01:23 AM","None"
"15933","Discovery Outsourcing","","","","","12/3/2014 3:01:23 AM","None"
"15934","Discovery Technologies","","","","","12/3/2014 3:01:23 AM","None"
"15935","DISH","","","","","12/3/2014 3:01:23 AM","None"
"15936","Dish Network","","","","","12/3/2014 3:01:23 AM","None"
"15937","Disney for Apex Systems","","","","","12/3/2014 3:01:23 AM","None"
"15938","DISYS","","","","","12/3/2014 3:01:23 AM","None"
"15939","DIVERSANT LLC","","","","","12/3/2014 3:01:23 AM","None"
"15940","Diverse Staffing","","","","","12/3/2014 3:01:23 AM","None"
"15941","Diversified Human Resources","","","","","12/3/2014 3:01:23 AM","None"
"15942","DMarie & Co.","","","","","12/3/2014 3:01:23 AM","None"
"15943","Dos Manos Massage Studio","","","","","12/3/2014 3:01:23 AM","None"
"15944","Dot Hill Systems","","","","","12/3/2014 3:01:23 AM","None"
"15945","Douglas County","","","","","12/3/2014 3:01:23 AM","None"
"15946","Douglas County School District","","","","","12/3/2014 3:01:23 AM","None"
"15947","Douglas Williamson Consulting","","","","","12/3/2014 3:01:23 AM","None"
"15948","Dreamwork Staffing","","","","","12/3/2014 3:01:23 AM","None"
"15949","DT Shumaker LLC","","","","","12/3/2014 3:01:23 AM","None"
"15950","DTC | Greenwood Village Chamber of Commerce","","","","","12/3/2014 3:01:23 AM","None"
"15951","DTC Energy Group Inc.","","","","","12/3/2014 3:01:23 AM","None"
"15952","Dubai-Forever.Com","","","","","12/3/2014 3:01:23 AM","None"
"15953","Dungeon Fitness","","","","","12/3/2014 3:01:23 AM","None"
"15954","Dutch Heritage Gardens Inc.","","","","","12/3/2014 3:01:23 AM","None"
"15955","Dynamic Doulas","","","","","12/3/2014 3:01:23 AM","None"
"15956","Dynamic Materials Corporation","","","","","12/3/2014 3:01:23 AM","None"
"15957","Eagle Professional Resources","","","","","12/3/2014 3:01:23 AM","None"
"15958","Eating Recovery Center LLC","","","","","12/3/2014 3:01:23 AM","None"
"15959","Eaton","","","","","12/3/2014 3:01:23 AM","None"
"15960","Eaton - Hydraulics Business","","","","","12/3/2014 3:01:23 AM","None"
"15961","EcoMark Solar","","","","","12/3/2014 3:01:23 AM","None"
"15962","Ecotech Institute","","","","","12/3/2014 3:01:23 AM","None"
"15963","EdgeLink","","","","","12/3/2014 3:01:23 AM","None"
"15964","Edina Realty","","","","","12/3/2014 3:01:23 AM","None"
"15965","Edison Electric Institute","","","","","12/3/2014 3:01:23 AM","None"
"15966","EdOutWest","","","","","12/3/2014 3:01:23 AM","None"
"15967","Edward Jones","","","","","12/3/2014 3:01:23 AM","None"
"15968","Eide Bailly LLP","","","","","12/3/2014 3:01:23 AM","None"
"15969","Einstein Noah Restaurant Group","","","","","12/3/2014 3:01:23 AM","None"
"15970","Einstein Noah Restaurant Group Inc.","","","","","12/3/2014 3:01:23 AM","None"
"15971","EKS&H","","","","","12/3/2014 3:01:23 AM","None"
"15972","Elevations Credit Union","","","","","12/3/2014 3:01:23 AM","None"
"15973","Elevations Credit Union available through CUSO Fin","","","","","12/3/2014 3:01:23 AM","None"
"15974","Elijah Ltd.","","","","","12/3/2014 3:01:23 AM","None"
"15975","Ella Bliss Beauty Bar","","","","","12/3/2014 3:01:23 AM","None"
"15976","Elocus Technical Services Inc","","","","","12/3/2014 3:01:23 AM","None"
"15977","Elwood Staffing Services Inc.","","","","","12/3/2014 3:01:23 AM","None"
"15978","Emerald Health Services","","","","","12/3/2014 3:01:23 AM","None"
"15979","Emerson and Hamilton Consulting and Strategies LLC","","","","","12/3/2014 3:01:23 AM","None"
"15980","Empire Architectural Metal & Glass","","","","","12/3/2014 3:01:23 AM","None"
"15981","EnCana","","","","","12/3/2014 3:01:23 AM","None"
"15982","Encana Corporation","","","","","12/3/2014 3:01:23 AM","None"
"15983","Encore A Quintiles Company","","","","","12/3/2014 3:01:23 AM","None"
"15984","Endgame","","","","","12/3/2014 3:01:23 AM","None"
"15985","Enercon Services","","","","","12/3/2014 3:01:23 AM","None"
"15986","Engineering Consultant/Volunteer","","","","","12/3/2014 3:01:23 AM","None"
"15987","Enscicon Corporation","","","","","12/3/2014 3:01:23 AM","None"
"15988","Entegee","","","","","12/3/2014 3:01:23 AM","None"
"15989","Envision Healthcare","","","","","12/3/2014 3:01:23 AM","None"
"15990","Envision IT Partners","","","","","12/3/2014 3:01:23 AM","None"
"15991","Envysion Inc.","","","","","12/3/2014 3:01:23 AM","None"
"15992","EOG Resources","","","","","12/3/2014 3:01:23 AM","None"
"15993","EPIC Technologies LLC","","","","","12/3/2014 3:01:23 AM","None"
"15994","Epicurean Catering","","","","","12/3/2014 3:01:23 AM","None"
"15995","Epsilon","","","","","12/3/2014 3:01:23 AM","None"
"15996","Equity Staffing Group","","","","","12/3/2014 3:01:23 AM","None"
"15997","Ernie Vela Inc","","","","","12/3/2014 3:01:23 AM","None"
"15998","ESKAY METAL FABRICATION/SPECIALTY SATINLESS.COM","","","","","12/3/2014 3:01:23 AM","None"
"15999","EssentiaLink","","","","","12/3/2014 3:01:23 AM","None"
"16000","Ethix Solutions","","","","","12/3/2014 3:01:23 AM","None"
"16001","Etnyka","","","","","12/3/2014 3:01:23 AM","None"
"16002","European Flower Shop","","","","","12/3/2014 3:01:23 AM","None"
"16003","eVantage Financial","","","","","12/3/2014 3:01:23 AM","None"
"16004","Event Horizons LLC","","","","","12/3/2014 3:01:23 AM","None"
"16005","Everest University Online","","","","","12/3/2014 3:01:23 AM","None"
"16006","Everest University-South Orlando Campus","","","","","12/3/2014 3:01:23 AM","None"
"16007","Excel Accounting Services Inc.","","","","","12/3/2014 3:01:23 AM","None"
"16008","Excel Personnel","","","","","12/3/2014 3:01:23 AM","None"
"16009","Excelsior Youth Center","","","","","12/3/2014 3:01:23 AM","None"
"16010","Exceltox Laboratories","","","","","12/3/2014 3:01:23 AM","None"
"16011","Executive Assistant to the CEO","","","","","12/3/2014 3:01:23 AM","None"
"16012","Executive Talent Finders Inc","","","","","12/3/2014 3:01:23 AM","None"
"16013","Exempla Healthcare Denver CO","","","","","12/3/2014 3:01:23 AM","None"
"16014","Exit Realty DTC","","","","","12/3/2014 3:01:23 AM","None"
"16015","Exodus Moving and Storage","","","","","12/3/2014 3:01:23 AM","None"
"16016","Experience Retail  Store Manager Looking for Oppor","","","","","12/3/2014 3:01:23 AM","None"
"16017","Express Freight Denver","","","","","12/3/2014 3:01:23 AM","None"
"16018","Express Scripts","","","","","12/3/2014 3:01:23 AM","None"
"16019","EY","","","","","12/3/2014 3:01:23 AM","None"
"16020","EZCorp","","","","","12/3/2014 3:01:23 AM","None"
"16021","Facebook","","","","","12/3/2014 3:01:23 AM","None"
"16022","Fahrenheit IT","","","","","12/3/2014 3:01:23 AM","None"
"16023","Fairway Independent Mortgage Corporation","","","","","12/3/2014 3:01:23 AM","None"
"16024","Fallon","","","","","12/3/2014 3:01:23 AM","None"
"16025","Famous Brands International","","","","","12/3/2014 3:01:23 AM","None"
"16026","Fannie May Confections Brands Inc.","","","","","12/3/2014 3:01:23 AM","None"
"16027","Farmers Insurance","","","","","12/3/2014 3:01:23 AM","None"
"16028","Federal Highway Administration","","","","","12/3/2014 3:01:23 AM","None"
"16029","Federal Reserve Bank of Minneapolis","","","","","12/3/2014 3:01:23 AM","None"
"16030","FedEx Ground","","","","","12/3/2014 3:01:23 AM","None"
"16031","FEP Search Group","","","","","12/3/2014 3:01:23 AM","None"
"16032","Ficcarotta Properties","","","","","12/3/2014 3:01:23 AM","None"
"16033","FICO","","","","","12/3/2014 3:01:23 AM","None"
"16034","Fidelis Care","","","","","12/3/2014 3:01:23 AM","None"
"16035","Fidelity National Title","","","","","12/3/2014 3:01:23 AM","None"
"16036","Fifth Dimension Consulting","","","","","12/3/2014 3:01:23 AM","None"
"16037","Financial Consultant - Variety of Private & Public","","","","","12/3/2014 3:01:23 AM","None"
"16038","First and Goal Media LLC","","","","","12/3/2014 3:01:23 AM","None"
"16039","First Data Corporation","","","","","12/3/2014 3:01:23 AM","None"
"16040","First Option Mortgage","","","","","12/3/2014 3:01:23 AM","None"
"16041","First Solar","","","","","12/3/2014 3:01:23 AM","None"
"16042","Five Guys Burgers and Fries","","","","","12/3/2014 3:01:23 AM","None"
"16043","Flatiron Construction","","","","","12/3/2014 3:01:23 AM","None"
"16044","Flatiron Construction Corporation","","","","","12/3/2014 3:01:23 AM","None"
"16045","Flatirons Coffee Roasters","","","","","12/3/2014 3:01:23 AM","None"
"16046","Flatirons Habitat for Humanity","","","","","12/3/2014 3:01:23 AM","None"
"16047","Flatirons Solutions","","","","","12/3/2014 3:01:23 AM","None"
"16048","Flextronics","","","","","12/3/2014 3:01:23 AM","None"
"16049","Fluid Consulting Services","","","","","12/3/2014 3:01:23 AM","None"
"16050","Fluor","","","","","12/3/2014 3:01:23 AM","None"
"16051","Foraker Design","","","","","12/3/2014 3:01:23 AM","None"
"16052","Forestar Group Inc.","","","","","12/3/2014 3:01:23 AM","None"
"16053","Forever 21","","","","","12/3/2014 3:01:23 AM","None"
"16054","Forsythe Technology","","","","","12/3/2014 3:01:23 AM","None"
"16055","Fort Collins Heating and Air Conditioning","","","","","12/3/2014 3:01:23 AM","None"
"16056","Fort Worth Zoo","","","","","12/3/2014 3:01:23 AM","None"
"16057","Four Seasons Hotels and Resorts","","","","","12/3/2014 3:01:23 AM","None"
"16058","Four Winds Interactive","","","","","12/3/2014 3:01:23 AM","None"
"16059","Franchise Select 360","","","","","12/3/2014 3:01:23 AM","None"
"16060","FranklinCovey","","","","","12/3/2014 3:01:23 AM","None"
"16061","Freelance","","","","","12/3/2014 3:01:23 AM","None"
"16062","Freelance 3D Design","","","","","12/3/2014 3:01:23 AM","None"
"16063","FreeWave Technologies","","","","","12/3/2014 3:01:23 AM","None"
"16064","Fresca Foods Inc.","","","","","12/3/2014 3:01:23 AM","None"
"16065","Fresenius Medical Care","","","","","12/3/2014 3:01:23 AM","None"
"16066","Fresh Point","","","","","12/3/2014 3:01:24 AM","None"
"16067","Front Range Community College","","","","","12/3/2014 3:01:24 AM","None"
"16068","Frontier Airlines","","","","","12/3/2014 3:01:24 AM","None"
"16069","Frontier Communications","","","","","12/3/2014 3:01:24 AM","None"
"16070","FullSail Brewing","","","","","12/3/2014 3:01:24 AM","None"
"16071","Futaris ( formerly Alaska Telecom)","","","","","12/3/2014 3:01:24 AM","None"
"16072","Future Electronics","","","","","12/3/2014 3:01:24 AM","None"
"16073","G3 Technical and Financial Resources","","","","","12/3/2014 3:01:24 AM","None"
"16074","G4S Technology","","","","","12/3/2014 3:01:24 AM","None"
"16075","G6 Hospitality LLC","","","","","12/3/2014 3:01:24 AM","None"
"16076","Gadget Geek Apps LLC","","","","","12/3/2014 3:01:24 AM","None"
"16077","Gambit Technologies","","","","","12/3/2014 3:01:24 AM","None"
"16078","Gart Properties LLC","","","","","12/3/2014 3:01:24 AM","None"
"16079","Gates Corporation","","","","","12/3/2014 3:01:24 AM","None"
"16080","Gatorade","","","","","12/3/2014 3:01:24 AM","None"
"16081","GE","","","","","12/3/2014 3:01:24 AM","None"
"16082","GE Analytical Instruments","","","","","12/3/2014 3:01:24 AM","None"
"16083","GE Capital","","","","","12/3/2014 3:01:24 AM","None"
"16084","GE Healthcare","","","","","12/3/2014 3:01:24 AM","None"
"16085","GE Healthcare- KellyOCG RPO","","","","","12/3/2014 3:01:24 AM","None"
"16086","GE Healthcare Water & Power Rail and Aviation","","","","","12/3/2014 3:01:24 AM","None"
"16087","GE Johnson Construction Company","","","","","12/3/2014 3:01:24 AM","None"
"16088","GE Power & Water","","","","","12/3/2014 3:01:24 AM","None"
"16089","GEICO","","","","","12/3/2014 3:01:24 AM","None"
"16090","General Dynamics Information Technology","","","","","12/3/2014 3:01:24 AM","None"
"16091","Generalist | HRIS | Employee Relations | Employee ","","","","","12/3/2014 3:01:24 AM","None"
"16092","Genesee Commercial Group","","","","","12/3/2014 3:01:24 AM","None"
"16093","Genesis HealthCare","","","","","12/3/2014 3:01:24 AM","None"
"16094","Genesys","","","","","12/3/2014 3:01:24 AM","None"
"16095","GENPACT","","","","","12/3/2014 3:01:24 AM","None"
"16096","Geometric Results Inc. (formally IQNavigator MSP)","","","","","12/3/2014 3:01:24 AM","None"
"16097","Georgia State University","","","","","12/3/2014 3:01:24 AM","None"
"16098","Gerber Scientific inc","","","","","12/3/2014 3:01:24 AM","None"
"16099","GIC Capital Corp","","","","","12/3/2014 3:01:24 AM","None"
"16100","glo Professional Brands","","","","","12/3/2014 3:01:24 AM","None"
"16101","Global Business Solutions Inc.","","","","","12/3/2014 3:01:24 AM","None"
"16102","Global Dedication/ Proimages Communications","","","","","12/3/2014 3:01:24 AM","None"
"16103","Global Healthcare Company","","","","","12/3/2014 3:01:24 AM","None"
"16104","Global Pharmaceuticals Company","","","","","12/3/2014 3:01:24 AM","None"
"16105","Global Recruiters of Carmel","","","","","12/3/2014 3:01:24 AM","None"
"16106","Global Social Entrepreneurship LLC","","","","","12/3/2014 3:01:24 AM","None"
"16107","Global Technology Resources","","","","","12/3/2014 3:01:24 AM","None"
"16108","Global Wellness Group","","","","","12/3/2014 3:01:24 AM","None"
"16109","Glowpoint Inc. (formerly Affinity VideoNet)","","","","","12/3/2014 3:01:24 AM","None"
"16110","GNC Consulting","","","","","12/3/2014 3:01:24 AM","None"
"16111","Go Figure Accounting","","","","","12/3/2014 3:01:24 AM","None"
"16112","Gold Coast Health Plan","","","","","12/3/2014 3:01:24 AM","None"
"16113","Gold Research Inc","","","","","12/3/2014 3:01:24 AM","None"
"16114","Golden Aluminum","","","","","12/3/2014 3:01:24 AM","None"
"16115","Gold-G3","","","","","12/3/2014 3:01:24 AM","None"
"16116","Good Times Restaurants","","","","","12/3/2014 3:01:24 AM","None"
"16117","Google","","","","","12/3/2014 3:01:24 AM","None"
"16118","Gordon Consulting","","","","","12/3/2014 3:01:24 AM","None"
"16119","GOSSPL(Arthur J. Gallagher & Co.)","","","","","12/3/2014 3:01:24 AM","None"
"16120","Government","","","","","12/3/2014 3:01:24 AM","None"
"16121","Graebel Companies","","","","","12/3/2014 3:01:24 AM","None"
"16122","Grafton Staffing Inc.","","","","","12/3/2014 3:01:24 AM","None"
"16123","Grainger","","","","","12/3/2014 3:01:24 AM","None"
"16124","Grand Peaks Property Management","","","","","12/3/2014 3:01:24 AM","None"
"16125","Grand Teton Lodge Company","","","","","12/3/2014 3:01:24 AM","None"
"16126","Greater Denver","","","","","12/3/2014 3:01:24 AM","None"
"16127","Greater Denver Area","","","","","12/3/2014 3:01:24 AM","None"
"16128","Great-West","","","","","12/3/2014 3:01:24 AM","None"
"16129","Green House Data","","","","","12/3/2014 3:01:24 AM","None"
"16130","GreenTeaMerchant.com","","","","","12/3/2014 3:01:24 AM","None"
"16131","greyzone","","","","","12/3/2014 3:01:24 AM","None"
"16132","Group One Search Inc.","","","","","12/3/2014 3:01:24 AM","None"
"16133","Gulf Power Company","","","","","12/3/2014 3:01:24 AM","None"
"16134","H&H Builders Inc.","","","","","12/3/2014 3:01:24 AM","None"
"16135","Habitat for Humanity Upper Fraser Valley","","","","","12/3/2014 3:01:24 AM","None"
"16136","Hach Company","","","","","12/3/2014 3:01:24 AM","None"
"16137","Halcon Resources Corporation","","","","","12/3/2014 3:01:24 AM","None"
"16138","Halker Consulting LLC.","","","","","12/3/2014 3:01:24 AM","None"
"16139","Halliburton","","","","","12/3/2014 3:01:24 AM","None"
"16140","Halliburton Energy Services","","","","","12/3/2014 3:01:24 AM","None"
"16141","Hamon Deltak Inc. A Subsidiary of Hamon Corporatio","","","","","12/3/2014 3:01:24 AM","None"
"16142","Harbor Research","","","","","12/3/2014 3:01:24 AM","None"
"16143","Hardesty Hackett & Partners LLLP","","","","","12/3/2014 3:01:24 AM","None"
"16144","Hawkwood Energy","","","","","12/3/2014 3:01:24 AM","None"
"16145","HB Management Group","","","","","12/3/2014 3:01:24 AM","None"
"16146","HBC Solutions a Gores Portfolio Company","","","","","12/3/2014 3:01:24 AM","None"
"16147","HCA-Sky Ridge Medical Center","","","","","12/3/2014 3:01:24 AM","None"
"16148","HCL America Inc","","","","","12/3/2014 3:01:24 AM","None"
"16149","HDR","","","","","12/3/2014 3:01:24 AM","None"
"16150","Head Rush Technologies","","","","","12/3/2014 3:01:24 AM","None"
"16151","Healthcare Security Services (HSS)","","","","","12/3/2014 3:01:24 AM","None"
"16152","HealthONE","","","","","12/3/2014 3:01:24 AM","None"
"16153","Heartland Small Business Solutions Inc.","","","","","12/3/2014 3:01:24 AM","None"
"16154","HEI Inc.","","","","","12/3/2014 3:01:24 AM","None"
"16155","Heidelberg Cement Norcem Kjopsvik","","","","","12/3/2014 3:01:24 AM","None"
"16156","Heineken USA","","","","","12/3/2014 3:01:24 AM","None"
"16157","Heroux Associates","","","","","12/3/2014 3:01:24 AM","None"
"16158","Hewlett-Packard","","","","","12/3/2014 3:01:24 AM","None"
"16159","HHS / CHRISTUS Health EVS","","","","","12/3/2014 3:01:24 AM","None"
"16160","High Country Energy Search","","","","","12/3/2014 3:01:24 AM","None"
"16161","High Country Executive Search","","","","","12/3/2014 3:01:24 AM","None"
"16162","HighCraft Builders","","","","","12/3/2014 3:01:24 AM","None"
"16163","Hill Petroleum","","","","","12/3/2014 3:01:24 AM","None"
"16164","Hire Alignment LLC","","","","","12/3/2014 3:01:24 AM","None"
"16165","Hire Heroes USA","","","","","12/3/2014 3:01:24 AM","None"
"16166","Hire Investment","","","","","12/3/2014 3:01:24 AM","None"
"16167","Hispanic Chamber of Commerce of Metro Denver","","","","","12/3/2014 3:01:24 AM","None"
"16168","HoganTaylor LLP","","","","","12/3/2014 3:01:24 AM","None"
"16169","Hollywood In Toto","","","","","12/3/2014 3:01:24 AM","None"
"16170","Home Advisor","","","","","12/3/2014 3:01:24 AM","None"
"16171","Home Buyers Warranty","","","","","12/3/2014 3:01:24 AM","None"
"16172","Home Instead Senior Care","","","","","12/3/2014 3:01:24 AM","None"
"16173","Home Smart Realty Group of Colorado","","","","","12/3/2014 3:01:24 AM","None"
"16174","HomeAdvisor","","","","","12/3/2014 3:01:24 AM","None"
"16175","Hope Shines Inc","","","","","12/3/2014 3:01:24 AM","None"
"16176","Horizon IT Recruitment (an RPO company)","","","","","12/3/2014 3:01:24 AM","None"
"16177","Horizontal Integration","","","","","12/3/2014 3:01:24 AM","None"
"16178","Hotel Jerome Auberge Resorts","","","","","12/3/2014 3:01:24 AM","None"
"16179","HR Consulting","","","","","12/3/2014 3:01:24 AM","None"
"16180","hrQ Inc.","","","","","12/3/2014 3:01:24 AM","None"
"16181","HSS","","","","","12/3/2014 3:01:24 AM","None"
"16182","HSS Inc","","","","","12/3/2014 3:01:24 AM","None"
"16184","HuebnerPetersen","","","","","12/3/2014 3:01:24 AM","None"
"16185","Human Capital Institute","","","","","12/3/2014 3:01:24 AM","None"
"16186","Human Movement Management","","","","","12/3/2014 3:01:24 AM","None"
"16187","Humanscale","","","","","12/3/2014 3:01:24 AM","None"
"16188","Hunt Companies Business Services LLC","","","","","12/3/2014 3:01:24 AM","None"
"16189","Hunter Douglas","","","","","12/3/2014 3:01:24 AM","None"
"16190","Hunter Nelson and Hayes Consulting","","","","","12/3/2014 3:01:24 AM","None"
"16191","HVH Transportation","","","","","12/3/2014 3:01:24 AM","None"
"16192","HVS","","","","","12/3/2014 3:01:24 AM","None"
"16193","i2i Workforce","","","","","12/3/2014 3:01:24 AM","None"
"16194","IBM - Contracted to United Launch Alliance (ULA)","","","","","12/3/2014 3:01:24 AM","None"
"16195","IC Axon","","","","","12/3/2014 3:01:24 AM","None"
"16196","iCORE Global","","","","","12/3/2014 3:01:24 AM","None"
"16197","icouldbe.org","","","","","12/3/2014 3:01:24 AM","None"
"16198","IDC","","","","","12/3/2014 3:01:24 AM","None"
"16199","IDC Technologies Inc.","","","","","12/3/2014 3:01:24 AM","None"
"16200","IHS","","","","","12/3/2014 3:01:24 AM","None"
"16201","IHS Inc.","","","","","12/3/2014 3:01:24 AM","None"
"16202","Iley & Associates Inc.","","","","","12/3/2014 3:01:24 AM","None"
"16203","iLockout Inc","","","","","12/3/2014 3:01:24 AM","None"
"16204","Imagine!","","","","","12/3/2014 3:01:24 AM","None"
"16205","IMCO Trailers","","","","","12/3/2014 3:01:24 AM","None"
"16206","Impactiva S. de R. L.","","","","","12/3/2014 3:01:24 AM","None"
"16207","Imprimis Group","","","","","12/3/2014 3:01:25 AM","None"
"16208","Indeed.com","","","","","12/3/2014 3:01:25 AM","None"
"16209","Independent","","","","","12/3/2014 3:01:25 AM","None"
"16210","Independent Consultant","","","","","12/3/2014 3:01:25 AM","None"
"16211","Independent Contractor","","","","","12/3/2014 3:01:25 AM","None"
"16212","Indigo Drey","","","","","12/3/2014 3:01:25 AM","None"
"16213","Indoor Gun Club.","","","","","12/3/2014 3:01:25 AM","None"
"16214","Infinity Marketing Group","","","","","12/3/2014 3:01:25 AM","None"
"16215","Information Technology Engineering Corporation (IT","","","","","12/3/2014 3:01:25 AM","None"
"16216","InfoTrust Group","","","","","12/3/2014 3:01:25 AM","None"
"16217","Infused Solutions (U.S. Army Recruiting Command)","","","","","12/3/2014 3:01:25 AM","None"
"16218","InnovAge","","","","","12/3/2014 3:01:25 AM","None"
"16219","Innovar Group","","","","","12/3/2014 3:01:25 AM","None"
"16220","Innovative Search Group","","","","","12/3/2014 3:01:25 AM","None"
"16221","Inovonics","","","","","12/3/2014 3:01:25 AM","None"
"16222","Insight","","","","","12/3/2014 3:01:25 AM","None"
"16223","Insight Investigations Inc.","","","","","12/3/2014 3:01:25 AM","None"
"16224","Inspirato","","","","","12/3/2014 3:01:25 AM","None"
"16225","Inspirato with American Express","","","","","12/3/2014 3:01:25 AM","None"
"16226","Integration International Inc.","","","","","12/3/2014 3:01:25 AM","None"
"16227","Integrity First Financial Group (IFFG)","","","","","12/3/2014 3:01:25 AM","None"
"16228","Intel","","","","","12/3/2014 3:01:25 AM","None"
"16229","Intel Corporation","","","","","12/3/2014 3:01:25 AM","None"
"16230","Intellipaat Software Solution Pvt.Ltd","","","","","12/3/2014 3:01:25 AM","None"
"16231","Intellitec College","","","","","12/3/2014 3:01:25 AM","None"
"16232","IntePros Consulting","","","","","12/3/2014 3:01:25 AM","None"
"16233","International Hearing Dog Inc.","","","","","12/3/2014 3:01:25 AM","None"
"16234","International Luxury Hotel Association","","","","","12/3/2014 3:01:25 AM","None"
"16235","Intrawest LLC","","","","","12/3/2014 3:01:25 AM","None"
"16236","Intrepid Potash","","","","","12/3/2014 3:01:25 AM","None"
"16237","Intuit","","","","","12/3/2014 3:01:25 AM","None"
"16238","IOBI Systems","","","","","12/3/2014 3:01:25 AM","None"
"16239","IPA Inc.","","","","","12/3/2014 3:01:25 AM","None"
"16240","IPS-Integrated Project Services Inc.","","","","","12/3/2014 3:01:25 AM","None"
"16241","IQNavigator","","","","","12/3/2014 3:01:25 AM","None"
"16242","Ireland Stapleton Pryor & Pascoe PC","","","","","12/3/2014 3:01:25 AM","None"
"16243","Iron Horse Architects","","","","","12/3/2014 3:01:25 AM","None"
"16244","ISLIND ehf","","","","","12/3/2014 3:01:25 AM","None"
"16245","J. Rick Lawn & Tree","","","","","12/3/2014 3:01:25 AM","None"
"16246","J2T Recruiting Consultants","","","","","12/3/2014 3:01:25 AM","None"
"16247","JAB Broadband","","","","","12/3/2014 3:01:25 AM","None"
"16248","Jackson Lewis P.C.","","","","","12/3/2014 3:01:25 AM","None"
"16249","Jamberry Nails","","","","","12/3/2014 3:01:25 AM","None"
"16250","Janou Pakter","","","","","12/3/2014 3:01:25 AM","None"
"16251","Janus Capital Group","","","","","12/3/2014 3:01:25 AM","None"
"16252","jared.caldwell@hotmail.com","","","","","12/3/2014 3:01:25 AM","None"
"16253","Jazz Pharmaceuticals","","","","","12/3/2014 3:01:25 AM","None"
"16254","JBM Computer Consultants Inc.","","","","","12/3/2014 3:01:25 AM","None"
"16255","JBS","","","","","12/3/2014 3:01:25 AM","None"
"16256","JBS US LLC","","","","","12/3/2014 3:01:25 AM","None"
"16257","JBS USA","","","","","12/3/2014 3:01:25 AM","None"
"16258","JBS USA Holdings Inc.","","","","","12/3/2014 3:01:25 AM","None"
"16260","jcpenney","","","","","12/3/2014 3:01:25 AM","None"
"16261","Jefferson Center for Mental Health","","","","","12/3/2014 3:01:25 AM","None"
"16262","Jefferson County Colorado","","","","","12/3/2014 3:01:25 AM","None"
"16263","Jefferson County Public Schools","","","","","12/3/2014 3:01:25 AM","None"
"16264","Jeppesen / Boeing","","","","","12/3/2014 3:01:25 AM","None"
"16265","Jeppesen Sanderson","","","","","12/3/2014 3:01:25 AM","None"
"16266","JMH Enterprises Inc.","","","","","12/3/2014 3:01:25 AM","None"
"16267","Jo-Ann Stores LLC.","","","","","12/3/2014 3:01:25 AM","None"
"16268","Job News JOBSweekly USOilWorker","","","","","12/3/2014 3:01:25 AM","None"
"16269","JobAdder","","","","","12/3/2014 3:01:25 AM","None"
"16270","Jobaline","","","","","12/3/2014 3:01:25 AM","None"
"16271","John Morrell Food Group - Premium Pet Health LLC","","","","","12/3/2014 3:01:25 AM","None"
"16272","John Tracy Publishing","","","","","12/3/2014 3:01:25 AM","None"
"16273","Jorge Botelho Silva - Contabilidade e Consultoria ","","","","","12/3/2014 3:01:25 AM","None"
"16274","JP Morgan Chase","","","","","12/3/2014 3:01:25 AM","None"
"16275","JSW Steel USA Inc. Baytown TX USA","","","","","12/3/2014 3:01:25 AM","None"
"16276","Junction Solutions","","","","","12/3/2014 3:01:25 AM","None"
"16277","Kaiser Permanente","","","","","12/3/2014 3:01:25 AM","None"
"16278","Kaiser Permanente - ITmPowered","","","","","12/3/2014 3:01:25 AM","None"
"16279","Kaiser Permanente Colorado Permanente Medical Grou","","","","","12/3/2014 3:01:25 AM","None"
"16280","Kaiser Permanente Health Plan Services & Administr","","","","","12/3/2014 3:01:25 AM","None"
"16281","Karan Teknoloji A.?. | Sharp Document Systems","","","","","12/3/2014 3:01:25 AM","None"
"16282","Karcher North America","","","","","12/3/2014 3:01:25 AM","None"
"16283","Karmel Software Solutions Inc.","","","","","12/3/2014 3:01:25 AM","None"
"16284","Keller Williams","","","","","12/3/2014 3:01:25 AM","None"
"16285","Kelley Trucking Inc.","","","","","12/3/2014 3:01:25 AM","None"
"16286","Kellogg Company","","","","","12/3/2014 3:01:25 AM","None"
"16287","Kelly Financial Resources","","","","","12/3/2014 3:01:25 AM","None"
"16288","Kelly Services","","","","","12/3/2014 3:01:25 AM","None"
"16289","Kenco Group","","","","","12/3/2014 3:01:25 AM","None"
"16290","Kenz & Leslie Distributing","","","","","12/3/2014 3:01:25 AM","None"
"16291","Key Energy Services","","","","","12/3/2014 3:01:25 AM","None"
"16292","KeyTrak","","","","","12/3/2014 3:01:25 AM","None"
"16293","Kforce","","","","","12/3/2014 3:01:25 AM","None"
"16294","KG Clean","","","","","12/3/2014 3:01:25 AM","None"
"16295","KG Consulting Firm","","","","","12/3/2014 3:01:25 AM","None"
"16296","Kiewit","","","","","12/3/2014 3:01:25 AM","None"
"16297","KIK Custom Products","","","","","12/3/2014 3:01:25 AM","None"
"16298","Kinder Morgan","","","","","12/3/2014 3:01:25 AM","None"
"16299","Kinetic Energy Service","","","","","12/3/2014 3:01:25 AM","None"
"16300","King Soopers","","","","","12/3/2014 3:01:25 AM","None"
"16301","KJ Technical","","","","","12/3/2014 3:01:25 AM","None"
"16302","Klassifieds.com.au","","","","","12/3/2014 3:01:25 AM","None"
"16303","Knight Piesold","","","","","12/3/2014 3:01:25 AM","None"
"16304","KONG Company","","","","","12/3/2014 3:01:25 AM","None"
"16305","KPA LLC","","","","","12/3/2014 3:01:25 AM","None"
"16306","KPMG Corporate Finance LLC","","","","","12/3/2014 3:01:25 AM","None"
"16307","Kuhaimi Advance Electronics System - Al Kuhaimi Me","","","","","12/3/2014 3:01:25 AM","None"
"16308","KWKeith Company","","","","","12/3/2014 3:01:25 AM","None"
"16309","L-3 Communications","","","","","12/3/2014 3:01:25 AM","None"
"16310","Lakeshore","","","","","12/3/2014 3:01:25 AM","None"
"16311","Lakeshore Staffing","","","","","12/3/2014 3:01:25 AM","None"
"16312","Landmark Apartment Trust","","","","","12/3/2014 3:01:25 AM","None"
"16313","Larimer County Workforce Center","","","","","12/3/2014 3:01:25 AM","None"
"16314","LARS LLC","","","","","12/3/2014 3:01:25 AM","None"
"16315","Laureate Education","","","","","12/3/2014 3:01:25 AM","None"
"16316","LAUSAN HR Inc.","","","","","12/3/2014 3:01:25 AM","None"
"16317","LCJ Capital","","","","","12/3/2014 3:01:25 AM","None"
"16318","LeaderQuest","","","","","12/3/2014 3:01:25 AM","None"
"16319","Leaders in Analysis |Technical Project Management ","","","","","12/3/2014 3:01:25 AM","None"
"16320","Leaders in Distribution Center Operations in Denve","","","","","12/3/2014 3:01:25 AM","None"
"16321","LearnQuest","","","","","12/3/2014 3:01:25 AM","None"
"16322","Legal Shield Inc.","","","","","12/3/2014 3:01:25 AM","None"
"16323","legalshield","","","","","12/3/2014 3:01:25 AM","None"
"16324","Lenel Systems International","","","","","12/3/2014 3:01:25 AM","None"
"16325","Leonard Rice Engineers Inc.","","","","","12/3/2014 3:01:25 AM","None"
"16326","Leprino Foods","","","","","12/3/2014 3:01:25 AM","None"
"16327","Level (3) Communications","","","","","12/3/2014 3:01:25 AM","None"
"16328","Level 3","","","","","12/3/2014 3:01:25 AM","None"
"16329","Level 3 Communications","","","","","12/3/2014 3:01:25 AM","None"
"16330","Level 3 Communications L.L.C","","","","","12/3/2014 3:01:25 AM","None"
"16331","Level 3 Communications LLC","","","","","12/3/2014 3:01:25 AM","None"
"16332","Levi Strauss & Co.","","","","","12/3/2014 3:01:25 AM","None"
"16333","LGS Innovations","","","","","12/3/2014 3:01:25 AM","None"
"16334","Life Transitions LLC.","","","","","12/3/2014 3:01:25 AM","None"
"16335","Lindenwood University (LCIE)","","","","","12/3/2014 3:01:25 AM","None"
"16336","Link Business Marketing Ltd","","","","","12/3/2014 3:01:25 AM","None"
"16337","LivWell","","","","","12/3/2014 3:01:25 AM","None"
"16338","Lockheed Martin","","","","","12/3/2014 3:01:25 AM","None"
"16339","Lockheed Martin Space Systems Center","","","","","12/3/2014 3:01:25 AM","None"
"16340","Lockton Companies","","","","","12/3/2014 3:01:25 AM","None"
"16341","LogicTree Corporation","","","","","12/3/2014 3:01:25 AM","None"
"16342","Logistics","","","","","12/3/2014 3:01:25 AM","None"
"16343","LogRhythm","","","","","12/3/2014 3:01:25 AM","None"
"16344","Lone Wolf HR Consulting LLC","","","","","12/3/2014 3:01:25 AM","None"
"16345","Long View Systems","","","","","12/3/2014 3:01:25 AM","None"
"16346","Longmont Area Economic Council","","","","","12/3/2014 3:01:25 AM","None"
"16347","Longmont Area Visitors Association","","","","","12/3/2014 3:01:26 AM","None"
"16348","Longmont Entrepreneurial Network","","","","","12/3/2014 3:01:26 AM","None"
"16349","Lovin&#39; Longmont","","","","","12/3/2014 3:01:26 AM","None"
"16350","Lowe&#39;s","","","","","12/3/2014 3:01:26 AM","None"
"16351","Lowe&#39;s Home Improvement","","","","","12/3/2014 3:01:26 AM","None"
"16352","Loxo","","","","","12/3/2014 3:01:26 AM","None"
"16353","Lucas PM Consulting Inc.","","","","","12/3/2014 3:01:26 AM","None"
"16354","Lucky&#39;s Market","","","","","12/3/2014 3:01:26 AM","None"
"16355","Ludwig Recruitment","","","","","12/3/2014 3:01:26 AM","None"
"16356","Lujan electrical services","","","","","12/3/2014 3:01:26 AM","None"
"16357","Lynx Product Group","","","","","12/3/2014 3:01:26 AM","None"
"16358","M + M Inc.","","","","","12/3/2014 3:01:26 AM","None"
"16359","Macquarie Group","","","","","12/3/2014 3:01:26 AM","None"
"16360","Madwire","","","","","12/3/2014 3:01:26 AM","None"
"16361","Magon Beverages pvt ltd","","","","","12/3/2014 3:01:26 AM","None"
"16362","Mai Mechanical Corporation","","","","","12/3/2014 3:01:26 AM","None"
"16363","Major Medical Supply LLC.","","","","","12/3/2014 3:01:26 AM","None"
"16364","ManpowerGroup","","","","","12/3/2014 3:01:26 AM","None"
"16365","Marathon Medical","","","","","12/3/2014 3:01:26 AM","None"
"16366","Market Force Information","","","","","12/3/2014 3:01:26 AM","None"
"16367","Markit On Demand","","","","","12/3/2014 3:01:26 AM","None"
"16368","Marks Oil Inc.","","","","","12/3/2014 3:01:26 AM","None"
"16369","MarkWest Hydrocarbon","","","","","12/3/2014 3:01:26 AM","None"
"16370","Marsh","","","","","12/3/2014 3:01:26 AM","None"
"16371","Martinez Consulting","","","","","12/3/2014 3:01:26 AM","None"
"16372","Mason Search Associates","","","","","12/3/2014 3:01:26 AM","None"
"16373","Mastertech Services Inc.","","","","","12/3/2014 3:01:26 AM","None"
"16374","Maui Wowi Hawaiian Coffees and Smoothies","","","","","12/3/2014 3:01:26 AM","None"
"16375","Max Borges Agency","","","","","12/3/2014 3:01:26 AM","None"
"16376","MAXIMUS","","","","","12/3/2014 3:01:26 AM","None"
"16377","Mayo Clinic","","","","","12/3/2014 3:01:26 AM","None"
"16378","MB Trading","","","","","12/3/2014 3:01:26 AM","None"
"16379","mcaConnect","","","","","12/3/2014 3:01:26 AM","None"
"16380","Mcgehee Tax Office","","","","","12/3/2014 3:01:26 AM","None"
"16381","McGladrey","","","","","12/3/2014 3:01:26 AM","None"
"16382","MDT Technical","","","","","12/3/2014 3:01:26 AM","None"
"16383","MDVIP","","","","","12/3/2014 3:01:26 AM","None"
"16384","MedAware Systems Inc","","","","","12/3/2014 3:01:26 AM","None"
"16385","MED-EL","","","","","12/3/2014 3:01:26 AM","None"
"16386","Media News Group","","","","","12/3/2014 3:01:26 AM","None"
"16387","MediaNews Group","","","","","12/3/2014 3:01:26 AM","None"
"16388","Medicus Healthcare Solutions","","","","","12/3/2014 3:01:26 AM","None"
"16389","Medtronic","","","","","12/3/2014 3:01:26 AM","None"
"16390","MegaPath","","","","","12/3/2014 3:01:26 AM","None"
"16391","Mercy Housing","","","","","12/3/2014 3:01:26 AM","None"
"16392","Merrick & Company","","","","","12/3/2014 3:01:26 AM","None"
"16393","Merrill Lynch","","","","","12/3/2014 3:01:26 AM","None"
"16394","MetFor Global LLC","","","","","12/3/2014 3:01:26 AM","None"
"16395","Metrilogics LLC","","","","","12/3/2014 3:01:26 AM","None"
"16396","Metronet Technologies","","","","","12/3/2014 3:01:26 AM","None"
"16397","Mi Casa TalentSource","","","","","12/3/2014 3:01:26 AM","None"
"16398","M-I SWACO A Schlumberger Company","","","","","12/3/2014 3:01:26 AM","None"
"16399","Michael F. Pharris CPA","","","","","12/3/2014 3:01:26 AM","None"
"16400","Michael Sczekan & Co. CPAs","","","","","12/3/2014 3:01:26 AM","None"
"16401","Micr Motion Inc.","","","","","12/3/2014 3:01:26 AM","None"
"16402","MidCon Land Services LLC","","","","","12/3/2014 3:01:26 AM","None"
"16403","Mile High Sports Radio","","","","","12/3/2014 3:01:26 AM","None"
"16404","Mile High United Way","","","","","12/3/2014 3:01:26 AM","None"
"16405","Miles","","","","","12/3/2014 3:01:26 AM","None"
"16406","Millennium Hotel and Resorts","","","","","12/3/2014 3:01:26 AM","None"
"16407","Milliken Fire Protection District","","","","","12/3/2014 3:01:26 AM","None"
"16408","Mitek Sports Medicine","","","","","12/3/2014 3:01:26 AM","None"
"16409","MM Solutions","","","","","12/3/2014 3:01:26 AM","None"
"16410","Mobile Data Technologies","","","","","12/3/2014 3:01:26 AM","None"
"16411","Modis","","","","","12/3/2014 3:01:26 AM","None"
"16412","Modis International","","","","","12/3/2014 3:01:26 AM","None"
"16413","Molina Healthcare","","","","","12/3/2014 3:01:26 AM","None"
"16414","MONDO","","","","","12/3/2014 3:01:26 AM","None"
"16415","MoneyGram International","","","","","12/3/2014 3:01:26 AM","None"
"16416","Moore Stephens Tiller LLC","","","","","12/3/2014 3:01:26 AM","None"
"16417","Morgan Community College","","","","","12/3/2014 3:01:26 AM","None"
"16418","Morgan Stanley","","","","","12/3/2014 3:01:26 AM","None"
"16419","Morgan Stanley Wealth Management","","","","","12/3/2014 3:01:26 AM","None"
"16420","Mortenson","","","","","12/3/2014 3:01:26 AM","None"
"16421","Mortgage Conductor","","","","","12/3/2014 3:01:26 AM","None"
"16422","Mosaic Consulting Group LLC","","","","","12/3/2014 3:01:26 AM","None"
"16423","Mosaic Labs Sustainability a Renewable Choice Ener","","","","","12/3/2014 3:01:26 AM","None"
"16424","Moses Wittemyer Harrison and Woodruff P.C.","","","","","12/3/2014 3:01:26 AM","None"
"16425","Mountain States Employers Council","","","","","12/3/2014 3:01:26 AM","None"
"16426","Mountain States Employers Council Inc.","","","","","12/3/2014 3:01:26 AM","None"
"16427","Mountain States Pipe & Supply Co","","","","","12/3/2014 3:01:26 AM","None"
"16428","MSEC","","","","","12/3/2014 3:01:26 AM","None"
"16429","Murphy Company","","","","","12/3/2014 3:01:26 AM","None"
"16430","MWH","","","","","12/3/2014 3:01:26 AM","None"
"16431","MWH Americas Inc","","","","","12/3/2014 3:01:26 AM","None"
"16432","MWH Global","","","","","12/3/2014 3:01:26 AM","None"
"16433","MWH Global Inc.","","","","","12/3/2014 3:01:26 AM","None"
"16434","My Beloved Ministries","","","","","12/3/2014 3:01:26 AM","None"
"16435","My SalonSuites Denver","","","","","12/3/2014 3:01:26 AM","None"
"16436","N2 Publishing","","","","","12/3/2014 3:01:26 AM","None"
"16437","Nabors Industries","","","","","12/3/2014 3:01:26 AM","None"
"16438","National Chung Hsing University Foreign Language C","","","","","12/3/2014 3:01:26 AM","None"
"16439","National CineMedia (NCM)","","","","","12/3/2014 3:01:26 AM","None"
"16440","National Entertainment Network","","","","","12/3/2014 3:01:26 AM","None"
"16441","National Entertainment Network LLC","","","","","12/3/2014 3:01:26 AM","None"
"16442","National Environmental Health Association","","","","","12/3/2014 3:01:26 AM","None"
"16443","National Renewable Energy Laboratory","","","","","12/3/2014 3:01:26 AM","None"
"16444","National Staffing & Recruiting Industry Associatio","","","","","12/3/2014 3:01:26 AM","None"
"16445","National Staffing Company Inc.","","","","","12/3/2014 3:01:26 AM","None"
"16446","National Technology Transfer (NTT)","","","","","12/3/2014 3:01:26 AM","None"
"16447","Nationstar Mortgage","","","","","12/3/2014 3:01:26 AM","None"
"16448","Natural Grocers by Vitamin Cottage","","","","","12/3/2014 3:01:26 AM","None"
"16449","Navajo Express","","","","","12/3/2014 3:01:26 AM","None"
"16450","NAW Consulting","","","","","12/3/2014 3:01:26 AM","None"
"16451","NBC Universal/Comcast","","","","","12/3/2014 3:01:26 AM","None"
"16452","NBH Bank N.A.","","","","","12/3/2014 3:01:26 AM","None"
"16453","Near Space Systems","","","","","12/3/2014 3:01:26 AM","None"
"16454","Needham Roofing","","","","","12/3/2014 3:01:26 AM","None"
"16455","Nerium International","","","","","12/3/2014 3:01:26 AM","None"
"16456","Nesco Resource","","","","","12/3/2014 3:01:26 AM","None"
"16457","netPolarity","","","","","12/3/2014 3:01:26 AM","None"
"16458","Network Global Logistics","","","","","12/3/2014 3:01:26 AM","None"
"16459","Network of Professional Social Workers (NPSW)","","","","","12/3/2014 3:01:26 AM","None"
"16460","New Breed Logistics","","","","","12/3/2014 3:01:26 AM","None"
"16461","New Company","","","","","12/3/2014 3:01:26 AM","None"
"16462","New Hope Natural Media","","","","","12/3/2014 3:01:26 AM","None"
"16463","NewCloud Networks","","","","","12/3/2014 3:01:26 AM","None"
"16464","Newmont Mining Corporation","","","","","12/3/2014 3:01:26 AM","None"
"16465","Nexsales Corp","","","","","12/3/2014 3:01:26 AM","None"
"16466","NextGen Talent Solutions","","","","","12/3/2014 3:01:26 AM","None"
"16467","Nexus Staffing Solutions LLC","","","","","12/3/2014 3:01:26 AM","None"
"16468","Nighttenders Inc.","","","","","12/3/2014 3:01:26 AM","None"
"16469","NIMBL","","","","","12/3/2014 3:01:26 AM","None"
"16470","NISHRM","","","","","12/3/2014 3:01:26 AM","None"
"16471","Noble Energy","","","","","12/3/2014 3:01:26 AM","None"
"16472","None","","","","","12/3/2014 3:01:26 AM","None"
"16473","Noodles & Company","","","","","12/3/2014 3:01:26 AM","None"
"16474","Noor Bank","","","","","12/3/2014 3:01:26 AM","None"
"16475","Noramtec Consultants","","","","","12/3/2014 3:01:26 AM","None"
"16476","Nordstrom","","","","","12/3/2014 3:01:26 AM","None"
"16477","North Highland","","","","","12/3/2014 3:01:26 AM","None"
"16478","North/Western Electrical","","","","","12/3/2014 3:01:26 AM","None"
"16479","Northrop Grumman Corporation","","","","","12/3/2014 3:01:26 AM","None"
"16480","Northstar Bank Colorado","","","","","12/3/2014 3:01:26 AM","None"
"16481","Novartis","","","","","12/3/2014 3:01:26 AM","None"
"16482","NTE promotions","","","","","12/3/2014 3:01:26 AM","None"
"16483","Nuverra Enviornmental Solutions","","","","","12/3/2014 3:01:26 AM","None"
"16484","NXO Americas","","","","","12/3/2014 3:01:26 AM","None"
"16485","Oakwood Homes LLC","","","","","12/3/2014 3:01:26 AM","None"
"16486","Octave Strategy","","","","","12/3/2014 3:01:26 AM","None"
"16487","Office Team Accountemps","","","","","12/3/2014 3:01:27 AM","None"
"16488","OfficeMax","","","","","12/3/2014 3:01:27 AM","None"
"16489","Ogletree Deakins","","","","","12/3/2014 3:01:27 AM","None"
"16490","Ohio Department of Job and Family Services","","","","","12/3/2014 3:01:27 AM","None"
"16491","Omnix","","","","","12/3/2014 3:01:27 AM","None"
"16492","OMNOVA Solutions Inc.","","","","","12/3/2014 3:01:27 AM","None"
"16493","On Assignment","","","","","12/3/2014 3:01:27 AM","None"
"16494","ONE Management Services Company (OMSC - formerly O","","","","","12/3/2014 3:01:27 AM","None"
"16495","Onward Healthcare","","","","","12/3/2014 3:01:27 AM","None"
"16496","Onward Search | Digital Marketing and Creative Sta","","","","","12/3/2014 3:01:27 AM","None"
"16497","Onyx M.D.","","","","","12/3/2014 3:01:27 AM","None"
"16498","Open Source Staffing","","","","","12/3/2014 3:01:27 AM","None"
"16499","Opengear","","","","","12/3/2014 3:01:27 AM","None"
"16500","OpenTable","","","","","12/3/2014 3:01:27 AM","None"
"16501","Opportune LLP","","","","","12/3/2014 3:01:27 AM","None"
"16502","Optimum Logistic Solutions","","","","","12/3/2014 3:01:27 AM","None"
"16503","OPX Biotechnologies Inc.","","","","","12/3/2014 3:01:27 AM","None"
"16504","Oracle","","","","","12/3/2014 3:01:27 AM","None"
"16505","Oracle (NYSE: ORCL)","","","","","12/3/2014 3:01:27 AM","None"
"16506","Oracle Corporation","","","","","12/3/2014 3:01:27 AM","None"
"16507","OtterBox","","","","","12/3/2014 3:01:27 AM","None"
"16508","Otto Instrument and Avionics","","","","","12/3/2014 3:01:27 AM","None"
"16509","Overhead Door Corporation","","","","","12/3/2014 3:01:27 AM","None"
"16510","Own Practice","","","","","12/3/2014 3:01:27 AM","None"
"16511","OZ Architecture","","","","","12/3/2014 3:01:27 AM","None"
"16512","P3 Management Consulting llc","","","","","12/3/2014 3:01:27 AM","None"
"16513","Pace","","","","","12/3/2014 3:01:27 AM","None"
"16514","Pace Telecom","","","","","12/3/2014 3:01:27 AM","None"
"16515","Pacific Architects and Engineers","","","","","12/3/2014 3:01:27 AM","None"
"16516","PAE","","","","","12/3/2014 3:01:27 AM","None"
"16517","Palmetto Health","","","","","12/3/2014 3:01:27 AM","None"
"16518","Panzer Solutions LLC","","","","","12/3/2014 3:01:27 AM","None"
"16519","Park Place Technologies","","","","","12/3/2014 3:01:27 AM","None"
"16520","Parker & Lynch","","","","","12/3/2014 3:01:27 AM","None"
"16521","Parker and Lynch","","","","","12/3/2014 3:01:27 AM","None"
"16522","Parsons Brinckerhoff","","","","","12/3/2014 3:01:27 AM","None"
"16523","Paul Fortin & Associates","","","","","12/3/2014 3:01:27 AM","None"
"16524","Paychex","","","","","12/3/2014 3:01:27 AM","None"
"16525","PCDHC","","","","","12/3/2014 3:01:27 AM","None"
"16526","PDC Energy Inc.","","","","","12/3/2014 3:01:27 AM","None"
"16527","Peace Catalyst International","","","","","12/3/2014 3:01:27 AM","None"
"16528","Peak Solutions","","","","","12/3/2014 3:01:27 AM","None"
"16529","Peak to Peak Partners LLC","","","","","12/3/2014 3:01:27 AM","None"
"16530","PeakView Recruiting","","","","","12/3/2014 3:01:27 AM","None"
"16531","PeerSource","","","","","12/3/2014 3:01:27 AM","None"
"16532","Pender Memorial Hospital","","","","","12/3/2014 3:01:27 AM","None"
"16533","Penrose-St Francis Hospital","","","","","12/3/2014 3:01:27 AM","None"
"16534","Performance Trust Capital Partners","","","","","12/3/2014 3:01:27 AM","None"
"16535","Perry Park Country Club","","","","","12/3/2014 3:01:27 AM","None"
"16536","Personal Capital Advisors","","","","","12/3/2014 3:01:27 AM","None"
"16537","Petroleum Field Services","","","","","12/3/2014 3:01:27 AM","None"
"16538","Peyton Resource Group","","","","","12/3/2014 3:01:27 AM","None"
"16539","Phil Long Dealerships","","","","","12/3/2014 3:01:27 AM","None"
"16540","Phillip M. DeMarks & Co.","","","","","12/3/2014 3:01:27 AM","None"
"16541","Pier 1 Imports","","","","","12/3/2014 3:01:27 AM","None"
"16542","Pikes Peak Library 21c","","","","","12/3/2014 3:01:27 AM","None"
"16543","Pilgrim&#39;s Pride","","","","","12/3/2014 3:01:27 AM","None"
"16544","Pine Creek Construction","","","","","12/3/2014 3:01:27 AM","None"
"16545","Pinkard Construction","","","","","12/3/2014 3:01:27 AM","None"
"16546","Pinnacle Agriculture Holdings LLC","","","","","12/3/2014 3:01:27 AM","None"
"16547","Pinnacle Entertainment","","","","","12/3/2014 3:01:27 AM","None"
"16548","Pinnacle Technical Resources","","","","","12/3/2014 3:01:27 AM","None"
"16549","Pinnacol Assurance","","","","","12/3/2014 3:01:27 AM","None"
"16550","PinPoint Staffing","","","","","12/3/2014 3:01:27 AM","None"
"16551","Piton Foundation","","","","","12/3/2014 3:01:27 AM","None"
"16552","PlanIT With Skill","","","","","12/3/2014 3:01:27 AM","None"
"16553","Playboy Enterprises Inc.","","","","","12/3/2014 3:01:27 AM","None"
"16554","PMI Mile Hi Chapter","","","","","12/3/2014 3:01:27 AM","None"
"16555","PorchLight Real Estate Group","","","","","12/3/2014 3:01:27 AM","None"
"16556","Power Co.","","","","","12/3/2014 3:01:27 AM","None"
"16557","Prada","","","","","12/3/2014 3:01:27 AM","None"
"16558","PRC","","","","","12/3/2014 3:01:27 AM","None"
"16559","Premier Corporate Search","","","","","12/3/2014 3:01:27 AM","None"
"16560","Premier Designs","","","","","12/3/2014 3:01:27 AM","None"
"16561","Premier Members FCU","","","","","12/3/2014 3:01:27 AM","None"
"16562","Premier Oilfield Equipment Company","","","","","12/3/2014 3:01:27 AM","None"
"16563","Presbyterian Healthcare Services","","","","","12/3/2014 3:01:27 AM","None"
"16564","Prestige Cruise Holdings","","","","","12/3/2014 3:01:27 AM","None"
"16565","Primerica","","","","","12/3/2014 3:01:27 AM","None"
"16566","PrincetonOne","","","","","12/3/2014 3:01:27 AM","None"
"16567","Private","","","","","12/3/2014 3:01:27 AM","None"
"16568","Private - MMJ","","","","","12/3/2014 3:01:27 AM","None"
"16569","Private Company","","","","","12/3/2014 3:01:27 AM","None"
"16570","Private Logistics & Supply Chain Consulting","","","","","12/3/2014 3:01:27 AM","None"
"16571","PRMG","","","","","12/3/2014 3:01:27 AM","None"
"16572","Pro Build","","","","","12/3/2014 3:01:27 AM","None"
"16574","ProBuild Holdings","","","","","12/3/2014 3:01:27 AM","None"
"16575","Professional Perspectives","","","","","12/3/2014 3:01:27 AM","None"
"16576","ProHubWay INC","","","","","12/3/2014 3:01:27 AM","None"
"16577","ProKarma","","","","","12/3/2014 3:01:27 AM","None"
"16578","ProLink Solutions","","","","","12/3/2014 3:01:27 AM","None"
"16579","Prologis","","","","","12/3/2014 3:01:27 AM","None"
"16580","ProSports Transitions","","","","","12/3/2014 3:01:27 AM","None"
"16581","Protiro Inc.","","","","","12/3/2014 3:01:27 AM","None"
"16582","Providence Corporate Development Holding Co.","","","","","12/3/2014 3:01:27 AM","None"
"16583","Pryor Johnson Carney Karr Nixon","","","","","12/3/2014 3:01:27 AM","None"
"16584","PSG Global Solutions","","","","","12/3/2014 3:01:27 AM","None"
"16585","Pulsar 360","","","","","12/3/2014 3:01:27 AM","None"
"16586","Pulte Mortgage","","","","","12/3/2014 3:01:27 AM","None"
"16587","Q1 Inc.  Quality First","","","","","12/3/2014 3:01:27 AM","None"
"16588","QEP Resources Inc.","","","","","12/3/2014 3:01:27 AM","None"
"16589","Quad graphic","","","","","12/3/2014 3:01:27 AM","None"
"16590","Quad/Graphics","","","","","12/3/2014 3:01:27 AM","None"
"16591","Qualcomm","","","","","12/3/2014 3:01:27 AM","None"
"16592","Qualfon","","","","","12/3/2014 3:01:27 AM","None"
"16593","Quality IT Source","","","","","12/3/2014 3:01:27 AM","None"
"16594","Quikrete","","","","","12/3/2014 3:01:27 AM","None"
"16595","Qwest","","","","","12/3/2014 3:01:27 AM","None"
"16596","Qwest Communications","","","","","12/3/2014 3:01:27 AM","None"
"16597","R Systems Inc.","","","","","12/3/2014 3:01:27 AM","None"
"16598","Radio Colorado Network","","","","","12/3/2014 3:01:27 AM","None"
"16599","RAGE Fitness","","","","","12/3/2014 3:01:27 AM","None"
"16600","Rally Software","","","","","12/3/2014 3:01:27 AM","None"
"16601","Rally Software Development","","","","","12/3/2014 3:01:27 AM","None"
"16602","Randstad","","","","","12/3/2014 3:01:27 AM","None"
"16603","Randstad Engineering US","","","","","12/3/2014 3:01:27 AM","None"
"16604","Randstad Sourceright US","","","","","12/3/2014 3:01:27 AM","None"
"16605","Randstad Technologies US","","","","","12/3/2014 3:01:27 AM","None"
"16606","Randstad USA","","","","","12/3/2014 3:01:27 AM","None"
"16607","Ranger Fabrication (a division of Triangle Petrole","","","","","12/3/2014 3:01:27 AM","None"
"16608","RAS & Associates","","","","","12/3/2014 3:01:27 AM","None"
"16609","Raysor Legal","","","","","12/3/2014 3:01:27 AM","None"
"16610","Raytheon","","","","","12/3/2014 3:01:27 AM","None"
"16611","Raytheon Polar Services","","","","","12/3/2014 3:01:27 AM","None"
"16612","RE/MAX | World Headquarters","","","","","12/3/2014 3:01:27 AM","None"
"16613","RE/MAX LLC","","","","","12/3/2014 3:01:27 AM","None"
"16614","REA Development Company","","","","","12/3/2014 3:01:27 AM","None"
"16615","Real Capital Solutions","","","","","12/3/2014 3:01:27 AM","None"
"16616","RealD","","","","","12/3/2014 3:01:27 AM","None"
"16617","Realogy Holdings Corp./Coldwell Bankers Residentia","","","","","12/3/2014 3:01:27 AM","None"
"16618","Rebecca J Salon","","","","","12/3/2014 3:01:27 AM","None"
"16619","Red Bull","","","","","12/3/2014 3:01:27 AM","None"
"16620","Red Bull Media House","","","","","12/3/2014 3:01:27 AM","None"
"16621","Red Oak Technologies","","","","","12/3/2014 3:01:27 AM","None"
"16622","Red Robin Gourment Burgers","","","","","12/3/2014 3:01:27 AM","None"
"16623","Red Robin International","","","","","12/3/2014 3:01:27 AM","None"
"16624","Redi Engineering Services LLC","","","","","12/3/2014 3:01:27 AM","None"
"16625","Redwood Trust Inc.","","","","","12/3/2014 3:01:27 AM","None"
"16626","Regis University","","","","","12/3/2014 3:01:27 AM","None"
"16627","Regis University- Counseling Program","","","","","12/3/2014 3:01:28 AM","None"
"16628","Reliable Field Services","","","","","12/3/2014 3:01:28 AM","None"
"16629","Remedy Web Solutions dba Pediatric Web","","","","","12/3/2014 3:01:28 AM","None"
"16630","RemX OfficeStaff","","","","","12/3/2014 3:01:28 AM","None"
"16631","Renaissance Executive Forums Colorado","","","","","12/3/2014 3:01:28 AM","None"
"16632","Renewable Energy Systems Americas","","","","","12/3/2014 3:01:28 AM","None"
"16633","Renewable Energy Systems Americas Inc.","","","","","12/3/2014 3:01:28 AM","None"
"16634","RES - Americas","","","","","12/3/2014 3:01:28 AM","None"
"16635","RES Americas","","","","","12/3/2014 3:01:28 AM","None"
"16636","RES Americas Inc.","","","","","12/3/2014 3:01:28 AM","None"
"16637","Resort","","","","","12/3/2014 3:01:28 AM","None"
"16638","Resource Logistics Inc","","","","","12/3/2014 3:01:28 AM","None"
"16639","ResourceMFG","","","","","12/3/2014 3:01:28 AM","None"
"16640","Resources Global Professionals","","","","","12/3/2014 3:01:28 AM","None"
"16641","Resu-wRight Services","","","","","12/3/2014 3:01:28 AM","None"
"16642","Retired","","","","","12/3/2014 3:01:28 AM","None"
"16643","Retired in Arlington Heights","","","","","12/3/2014 3:01:28 AM","None"
"16644","Retirement - Available for contract work","","","","","12/3/2014 3:01:28 AM","None"
"16645","Return Path","","","","","12/3/2014 3:01:28 AM","None"
"16646","Rexco Equipment Inc.","","","","","12/3/2014 3:01:28 AM","None"
"16647","Ricoh Americas Corporation","","","","","12/3/2014 3:01:28 AM","None"
"16648","Ricoh Production Print Solutions","","","","","12/3/2014 3:01:28 AM","None"
"16649","Rigid Global Buildings","","","","","12/3/2014 3:01:28 AM","None"
"16650","RIM Operating Inc.","","","","","12/3/2014 3:01:28 AM","None"
"16651","Rite Aid","","","","","12/3/2014 3:01:28 AM","None"
"16652","Rite of Passage","","","","","12/3/2014 3:01:28 AM","None"
"16653","Rivet Software","","","","","12/3/2014 3:01:28 AM","None"
"16654","RLE Technologies","","","","","12/3/2014 3:01:28 AM","None"
"16655","Robert Half","","","","","12/3/2014 3:01:28 AM","None"
"16656","Robert Half - Greater Colorado Anesthesia","","","","","12/3/2014 3:01:28 AM","None"
"16657","Robert half - office team","","","","","12/3/2014 3:01:28 AM","None"
"16658","Robert Half Finance & Accounting","","","","","12/3/2014 3:01:28 AM","None"
"16659","Robert Half International","","","","","12/3/2014 3:01:28 AM","None"
"16660","Robert Half Management Resources","","","","","12/3/2014 3:01:28 AM","None"
"16661","Robert Half Technology","","","","","12/3/2014 3:01:28 AM","None"
"16662","Roca Golf Hotel","","","","","12/3/2014 3:01:28 AM","None"
"16663","Rockhill Ventures Design Const.Group","","","","","12/3/2014 3:01:28 AM","None"
"16664","RockPile Energy Services","","","","","12/3/2014 3:01:28 AM","None"
"16665","Rockwell Automation","","","","","12/3/2014 3:01:28 AM","None"
"16666","Rocky Mountain Communities","","","","","12/3/2014 3:01:28 AM","None"
"16667","Rocky Mountain Human Services","","","","","12/3/2014 3:01:28 AM","None"
"16668","ROCKY MOUNTAIN PUMP AND DRILLING","","","","","12/3/2014 3:01:28 AM","None"
"16669","Rodan + Fields Dermatologists","","","","","12/3/2014 3:01:28 AM","None"
"16670","Rogue Wave Software","","","","","12/3/2014 3:01:28 AM","None"
"16671","Roper Insurance","","","","","12/3/2014 3:01:28 AM","None"
"16672","Roush Interprises","","","","","12/3/2014 3:01:28 AM","None"
"16673","RTD","","","","","12/3/2014 3:01:28 AM","None"
"16674","Rudi&#39;s Organic Bakery","","","","","12/3/2014 3:01:28 AM","None"
"16675","Ryko Solutions Inc.","","","","","12/3/2014 3:01:28 AM","None"
"16676","S&C Electric Company","","","","","12/3/2014 3:01:28 AM","None"
"16677","Safari Books Online","","","","","12/3/2014 3:01:28 AM","None"
"16678","Safe At Home","","","","","12/3/2014 3:01:28 AM","None"
"16679","Safety Inc.","","","","","12/3/2014 3:01:28 AM","None"
"16680","Sage Hospitality Resources","","","","","12/3/2014 3:01:28 AM","None"
"16681","Sage Telecommunications","","","","","12/3/2014 3:01:28 AM","None"
"16682","Sales Partnerships Inc.","","","","","12/3/2014 3:01:28 AM","None"
"16683","Salt Lake Community College","","","","","12/3/2014 3:01:28 AM","None"
"16684","Samenmais Corporation AND See-Hear-Speak.com","","","","","12/3/2014 3:01:28 AM","None"
"16685","Sam&#39;s Club","","","","","12/3/2014 3:01:28 AM","None"
"16686","Samson Oil and Gas","","","","","12/3/2014 3:01:28 AM","None"
"16687","Samson Resources","","","","","12/3/2014 3:01:28 AM","None"
"16688","SAMUELSON ACCOUNTING INC","","","","","12/3/2014 3:01:28 AM","None"
"16689","San Diego Human Resources Consulting Inc.","","","","","12/3/2014 3:01:28 AM","None"
"16690","San Diego Humane Society and SPCA","","","","","12/3/2014 3:01:28 AM","None"
"16691","Sandhill Scientific","","","","","12/3/2014 3:01:28 AM","None"
"16692","SanDisk","","","","","12/3/2014 3:01:28 AM","None"
"16693","Sanjel (USA) Inc.","","","","","12/3/2014 3:01:28 AM","None"
"16694","Sanjel Corporation","","","","","12/3/2014 3:01:28 AM","None"
"16695","SAVA Senior Care","","","","","12/3/2014 3:01:28 AM","None"
"16696","Scan2Archive","","","","","12/3/2014 3:01:28 AM","None"
"16697","Schlumberger","","","","","12/3/2014 3:01:28 AM","None"
"16698","SCI Group","","","","","12/3/2014 3:01:28 AM","None"
"16699","Scitor Corporation","","","","","12/3/2014 3:01:28 AM","None"
"16700","Scivantage","","","","","12/3/2014 3:01:28 AM","None"
"16701","SCL Health","","","","","12/3/2014 3:01:28 AM","None"
"16702","SCL Health (Saint Joseph Hospital)","","","","","12/3/2014 3:01:28 AM","None"
"16703","Scotiabank Trinidad & Tobago","","","","","12/3/2014 3:01:28 AM","None"
"16704","SDI International Corp","","","","","12/3/2014 3:01:28 AM","None"
"16705","Search Partners Recruiting","","","","","12/3/2014 3:01:28 AM","None"
"16706","Sears Canada","","","","","12/3/2014 3:01:28 AM","None"
"16707","Seeking New Opportunities","","","","","12/3/2014 3:01:28 AM","None"
"16708","SEH","","","","","12/3/2014 3:01:28 AM","None"
"16709","Select Energy Services","","","","","12/3/2014 3:01:28 AM","None"
"16710","Select Staffing","","","","","12/3/2014 3:01:28 AM","None"
"16711","Self Employed","","","","","12/3/2014 3:01:28 AM","None"
"16712","Self-Employed Contractor - Contract and Document A","","","","","12/3/2014 3:01:28 AM","None"
"16713","Semtech","","","","","12/3/2014 3:01:28 AM","None"
"16714","Senator Andy Kerr","","","","","12/3/2014 3:01:28 AM","None"
"16715","Sencommunications","","","","","12/3/2014 3:01:28 AM","None"
"16716","Send Me Patients","","","","","12/3/2014 3:01:28 AM","None"
"16717","Serve/ American Express","","","","","12/3/2014 3:01:28 AM","None"
"16718","Service King Collision Repair Centers","","","","","12/3/2014 3:01:28 AM","None"
"16719","Servpro of Arvada Servpro of Greater Boulder and B","","","","","12/3/2014 3:01:28 AM","None"
"16720","SESC","","","","","12/3/2014 3:01:28 AM","None"
"16721","Shaker Recruitment Advertising & Communications","","","","","12/3/2014 3:01:28 AM","None"
"16722","Shaklee Corporation","","","","","12/3/2014 3:01:28 AM","None"
"16723","Shareable Social","","","","","12/3/2014 3:01:28 AM","None"
"16724","SharpShooter Imaging","","","","","12/3/2014 3:01:28 AM","None"
"16725","Shepherd Electric Supply","","","","","12/3/2014 3:01:28 AM","None"
"16726","Sherman & Howard L.L.C.","","","","","12/3/2014 3:01:28 AM","None"
"16727","Shred-it","","","","","12/3/2014 3:01:28 AM","None"
"16728","Siemens","","","","","12/3/2014 3:01:28 AM","None"
"16729","Sierra Management Solutions","","","","","12/3/2014 3:01:28 AM","None"
"16730","Sierra Nevada Corporation","","","","","12/3/2014 3:01:28 AM","None"
"16731","Sierra Nevada Resort and Spa","","","","","12/3/2014 3:01:28 AM","None"
"16732","Sierra Trading Post","","","","","12/3/2014 3:01:28 AM","None"
"16733","Signature Consultants","","","","","12/3/2014 3:01:28 AM","None"
"16734","Silver Creek Properties LLC","","","","","12/3/2014 3:01:28 AM","None"
"16735","Sinclair Oil","","","","","12/3/2014 3:01:28 AM","None"
"16736","Sisters of Charity Health System","","","","","12/3/2014 3:01:28 AM","None"
"16737","SiteWise Corporation","","","","","12/3/2014 3:01:28 AM","None"
"16738","Skinny Pineapple","","","","","12/3/2014 3:01:28 AM","None"
"16739","SKYBEAM","","","","","12/3/2014 3:01:28 AM","None"
"16740","SLATERPAULL Architects","","","","","12/3/2014 3:01:28 AM","None"
"16741","Slawson Companies","","","","","12/3/2014 3:01:28 AM","None"
"16742","Sleep Number by Select Comfort","","","","","12/3/2014 3:01:28 AM","None"
"16743","SM Energy Company","","","","","12/3/2014 3:01:28 AM","None"
"16744","SMA America","","","","","12/3/2014 3:01:28 AM","None"
"16745","SmartReach Digital","","","","","12/3/2014 3:01:28 AM","None"
"16746","Smashburger","","","","","12/3/2014 3:01:28 AM","None"
"16747","Smashing Jams-Jamberry Nails","","","","","12/3/2014 3:01:28 AM","None"
"16748","SNI Companies","","","","","12/3/2014 3:01:28 AM","None"
"16749","SNI Financial","","","","","12/3/2014 3:01:28 AM","None"
"16750","SNI Technology","","","","","12/3/2014 3:01:28 AM","None"
"16751","Society of Information Management","","","","","12/3/2014 3:01:28 AM","None"
"16752","SOCNORTH","","","","","12/3/2014 3:01:28 AM","None"
"16753","SofTec Solutions","","","","","12/3/2014 3:01:28 AM","None"
"16754","Software Development | Product Manager | Training ","","","","","12/3/2014 3:01:28 AM","None"
"16755","SolidFire Inc.","","","","","12/3/2014 3:01:28 AM","None"
"16756","Solutelia","","","","","12/3/2014 3:01:28 AM","None"
"16757","Solvexis Inc.","","","","","12/3/2014 3:01:28 AM","None"
"16758","Soon to be YOUR ORGANIZATION!","","","","","12/3/2014 3:01:28 AM","None"
"16759","Sopheon plc","","","","","12/3/2014 3:01:28 AM","None"
"16760","Sophono Inc","","","","","12/3/2014 3:01:28 AM","None"
"16761","Sound Construx Inc.","","","","","12/3/2014 3:01:29 AM","None"
"16762","South Metro Denver Chamber of Commerce","","","","","12/3/2014 3:01:29 AM","None"
"16763","Southwest University","","","","","12/3/2014 3:01:29 AM","None"
"16764","Specialty Sports Venture","","","","","12/3/2014 3:01:29 AM","None"
"16765","Spectra Logic","","","","","12/3/2014 3:01:29 AM","None"
"16766","SPG Infotech","","","","","12/3/2014 3:01:29 AM","None"
"16767","Spirax Sarco","","","","","12/3/2014 3:01:29 AM","None"
"16768","Spitfire Business Solutions and Networking Inc.","","","","","12/3/2014 3:01:29 AM","None"
"16769","SPMB Executive Search","","","","","12/3/2014 3:01:29 AM","None"
"16770","Sports Authority","","","","","12/3/2014 3:01:29 AM","None"
"16771","Sports Authority Stores","","","","","12/3/2014 3:01:29 AM","None"
"16772","SpotXchange","","","","","12/3/2014 3:01:29 AM","None"
"16773","Sprowls & Company PC","","","","","12/3/2014 3:01:29 AM","None"
"16774","Spyder Active Sports","","","","","12/3/2014 3:01:29 AM","None"
"16775","Squaw Valley Ski Holdings","","","","","12/3/2014 3:01:29 AM","None"
"16776","Squibb Estates","","","","","12/3/2014 3:01:29 AM","None"
"16777","SRI NSR","","","","","12/3/2014 3:01:29 AM","None"
"16778","SST Energy Corporation","","","","","12/3/2014 3:01:29 AM","None"
"16779","St Paul Stamp Works - AR Maul - Nameplates","","","","","12/3/2014 3:01:29 AM","None"
"16780","St. Vrain Realty","","","","","12/3/2014 3:01:29 AM","None"
"16781","St. Vrain Valley School District","","","","","12/3/2014 3:01:29 AM","None"
"16782","Staffing Jobs","","","","","12/3/2014 3:01:29 AM","None"
"16783","Staffing Now","","","","","12/3/2014 3:01:29 AM","None"
"16784","Standard Parking","","","","","12/3/2014 3:01:29 AM","None"
"16785","Staples","","","","","12/3/2014 3:01:29 AM","None"
"16786","Star Tribune","","","","","12/3/2014 3:01:29 AM","None"
"16787","StarTek","","","","","12/3/2014 3:01:29 AM","None"
"16788","Starwood Hotels & Resorts Worldwide Inc.","","","","","12/3/2014 3:01:29 AM","None"
"16789","Starz","","","","","12/3/2014 3:01:29 AM","None"
"16790","Starz Entertainment","","","","","12/3/2014 3:01:29 AM","None"
"16791","Stascom Technologies","","","","","12/3/2014 3:01:29 AM","None"
"16792","State Farm Insurance John Baugh Agency","","","","","12/3/2014 3:01:29 AM","None"
"16793","State of Colorado - Dept. of Labor & Employment","","","","","12/3/2014 3:01:29 AM","None"
"16794","State of New Mexico","","","","","12/3/2014 3:01:29 AM","None"
"16795","Statebridge Company LLC","","","","","12/3/2014 3:01:29 AM","None"
"16796","Steadman Philippon Research Institute","","","","","12/3/2014 3:01:29 AM","None"
"16797","Stein Mart","","","","","12/3/2014 3:01:29 AM","None"
"16798","Stem Match LLC","","","","","12/3/2014 3:01:29 AM","None"
"16799","Steps for a Family (Non-Profit)","","","","","12/3/2014 3:01:29 AM","None"
"16800","Steven Roberts Original Desserts","","","","","12/3/2014 3:01:29 AM","None"
"16801","Stevens Littman Biddison Tharp & Weinberg LLC","","","","","12/3/2014 3:01:29 AM","None"
"16802","Stevens Transport","","","","","12/3/2014 3:01:29 AM","None"
"16803","Stolle Machinery","","","","","12/3/2014 3:01:29 AM","None"
"16804","Stolle Machinery Company LLC","","","","","12/3/2014 3:01:29 AM","None"
"16805","Stoller Corporation","","","","","12/3/2014 3:01:29 AM","None"
"16806","Stratus Consulting","","","","","12/3/2014 3:01:29 AM","None"
"16807","Streatz Entertainment","","","","","12/3/2014 3:01:29 AM","None"
"16808","Streffco Consultants Inc.","","","","","12/3/2014 3:01:29 AM","None"
"16809","Student DeVry University","","","","","12/3/2014 3:01:29 AM","None"
"16810","Studio NYL Structural Engineers","","","","","12/3/2014 3:01:29 AM","None"
"16811","Summit Bank And Trust","","","","","12/3/2014 3:01:29 AM","None"
"16812","Summit Business Advisors Inc.","","","","","12/3/2014 3:01:29 AM","None"
"16813","Summit Solutions of Colorado LLC","","","","","12/3/2014 3:01:29 AM","None"
"16814","Sumtio","","","","","12/3/2014 3:01:29 AM","None"
"16815","SumTotal Systems","","","","","12/3/2014 3:01:29 AM","None"
"16816","Sundt Construction Inc.","","","","","12/3/2014 3:01:29 AM","None"
"16817","Sunflower Bank","","","","","12/3/2014 3:01:29 AM","None"
"16818","SunGard - iWorks Healthcare","","","","","12/3/2014 3:01:29 AM","None"
"16819","SunGard Capital Markets (Ambit)","","","","","12/3/2014 3:01:29 AM","None"
"16820","Sunglass Garage","","","","","12/3/2014 3:01:29 AM","None"
"16821","SUNY Upstate Medical University","","","","","12/3/2014 3:01:29 AM","None"
"16822","SuperGreen Solutions","","","","","12/3/2014 3:01:29 AM","None"
"16823","Superior Energy Services","","","","","12/3/2014 3:01:29 AM","None"
"16824","Superior Group","","","","","12/3/2014 3:01:29 AM","None"
"16825","Superior Shared Services India Pvt Ltd. Superior G","","","","","12/3/2014 3:01:29 AM","None"
"16826","Superior Talent Resources (Superior Group)","","","","","12/3/2014 3:01:29 AM","None"
"16827","Superior Talent Resources Inc.","","","","","12/3/2014 3:01:29 AM","None"
"16828","Superior Talent Resources Inc. and Superior Design","","","","","12/3/2014 3:01:29 AM","None"
"16829","Superior Technical Resources Inc.","","","","","12/3/2014 3:01:29 AM","None"
"16830","SuperiorGroup","","","","","12/3/2014 3:01:29 AM","None"
"16831","Surgical Care Affiliates","","","","","12/3/2014 3:01:29 AM","None"
"16832","Swift Transportation","","","","","12/3/2014 3:01:29 AM","None"
"16833","Swinerton Builders","","","","","12/3/2014 3:01:29 AM","None"
"16834","Swingle Lawn Tree & Landscape Care","","","","","12/3/2014 3:01:29 AM","None"
"16835","SWS","","","","","12/3/2014 3:01:29 AM","None"
"16836","Synagro","","","","","12/3/2014 3:01:29 AM","None"
"16837","Synergy Staffing Incorporated","","","","","12/3/2014 3:01:29 AM","None"
"16838","Syngenta Flower","","","","","12/3/2014 3:01:29 AM","None"
"16839","Systems Contractors Inc.","","","","","12/3/2014 3:01:29 AM","None"
"16840","Systems Staffing Group","","","","","12/3/2014 3:01:29 AM","None"
"16841","T.M. Kilduff Consulting Inc.","","","","","12/3/2014 3:01:29 AM","None"
"16842","Talent Advisor at Charles Schwab on site through R","","","","","12/3/2014 3:01:29 AM","None"
"16843","Talent Management Solutions LLC","","","","","12/3/2014 3:01:29 AM","None"
"16844","Talent Resources","","","","","12/3/2014 3:01:29 AM","None"
"16845","TalentBridge","","","","","12/3/2014 3:01:29 AM","None"
"16846","TalenTrust LLC","","","","","12/3/2014 3:01:29 AM","None"
"16847","Tallant Recruiting","","","","","12/3/2014 3:01:29 AM","None"
"16848","Target","","","","","12/3/2014 3:01:29 AM","None"
"16849","Taylor Anderson LLP","","","","","12/3/2014 3:01:29 AM","None"
"16850","Taylors Financial Planning","","","","","12/3/2014 3:01:29 AM","None"
"16851","TE Connectivity","","","","","12/3/2014 3:01:29 AM","None"
"16852","Tech for All","","","","","12/3/2014 3:01:29 AM","None"
"16853","Tech USA","","","","","12/3/2014 3:01:29 AM","None"
"16854","TechLink Systems","","","","","12/3/2014 3:01:29 AM","None"
"16855","Technical Integrity","","","","","12/3/2014 3:01:29 AM","None"
"16856","Technical Integrity LLC","","","","","12/3/2014 3:01:29 AM","None"
"16857","Technology Talent LLC","","","","","12/3/2014 3:01:29 AM","None"
"16858","TechSystems","","","","","12/3/2014 3:01:29 AM","None"
"16859","TEKsystems","","","","","12/3/2014 3:01:29 AM","None"
"16860","TeleHealth Services","","","","","12/3/2014 3:01:29 AM","None"
"16861","TelePacific Communications","","","","","12/3/2014 3:01:29 AM","None"
"16862","TeleTech","","","","","12/3/2014 3:01:29 AM","None"
"16863","Teltech Communications LLC","","","","","12/3/2014 3:01:29 AM","None"
"16864","Telx","","","","","12/3/2014 3:01:29 AM","None"
"16865","Tendril","","","","","12/3/2014 3:01:29 AM","None"
"16866","Tenex Health","","","","","12/3/2014 3:01:29 AM","None"
"16867","TerraXML","","","","","12/3/2014 3:01:29 AM","None"
"16868","Terumo BCT","","","","","12/3/2014 3:01:29 AM","None"
"16869","Teryn Robinson Photography","","","","","12/3/2014 3:01:29 AM","None"
"16870","TG StaffingVail Resorts","","","","","12/3/2014 3:01:29 AM","None"
"16871","TGB Resources LLC","","","","","12/3/2014 3:01:29 AM","None"
"16872","TGS Management","","","","","12/3/2014 3:01:29 AM","None"
"16873","The Alchemy Group","","","","","12/3/2014 3:01:29 AM","None"
"16874","The Alternative Board","","","","","12/3/2014 3:01:29 AM","None"
"16875","The Ascent Services Group","","","","","12/3/2014 3:01:29 AM","None"
"16876","The Ash Group","","","","","12/3/2014 3:01:29 AM","None"
"16877","The Assist Group","","","","","12/3/2014 3:01:29 AM","None"
"16878","The Business Finance Store","","","","","12/3/2014 3:01:29 AM","None"
"16879","The Business Success Center","","","","","12/3/2014 3:01:29 AM","None"
"16880","The Caffeinated Careers Club","","","","","12/3/2014 3:01:29 AM","None"
"16881","The Catalyst Consulting Group LLC","","","","","12/3/2014 3:01:29 AM","None"
"16882","The Coca-Cola Company","","","","","12/3/2014 3:01:29 AM","None"
"16883","The Effective Leader","","","","","12/3/2014 3:01:29 AM","None"
"16884","The Gagie School","","","","","12/3/2014 3:01:29 AM","None"
"16885","The Garment Restoration Company","","","","","12/3/2014 3:01:29 AM","None"
"16886","The Green Fund","","","","","12/3/2014 3:01:29 AM","None"
"16887","The Group Inc.","","","","","12/3/2014 3:01:29 AM","None"
"16888","The Hain Celestial Group","","","","","12/3/2014 3:01:29 AM","None"
"16889","The HealthCare Initiative","","","","","12/3/2014 3:01:29 AM","None"
"16890","The Hunters Grill","","","","","12/3/2014 3:01:29 AM","None"
"16891","The Judge Group","","","","","12/3/2014 3:01:29 AM","None"
"16892","The Learning Factor","","","","","12/3/2014 3:01:29 AM","None"
"16893","The Lotus Concept LLC","","","","","12/3/2014 3:01:29 AM","None"
"16894","The Margolis Team","","","","","12/3/2014 3:01:29 AM","None"
"16895","The Nerdery","","","","","12/3/2014 3:01:30 AM","None"
"16896","The Open Group","","","","","12/3/2014 3:01:30 AM","None"
"16897","The Pinnacle Source Inc.","","","","","12/3/2014 3:01:30 AM","None"
"16898","The Premier Group Inc.","","","","","12/3/2014 3:01:30 AM","None"
"16899","The Reed Group","","","","","12/3/2014 3:01:30 AM","None"
"16900","The Resource Group","","","","","12/3/2014 3:01:30 AM","None"
"16901","The Salvation Army","","","","","12/3/2014 3:01:30 AM","None"
"16902","The Sheridan Press Sheridan Wyoming","","","","","12/3/2014 3:01:30 AM","None"
"16903","The Summit In Windsor","","","","","12/3/2014 3:01:30 AM","None"
"16904","The USVI Alliance","","","","","12/3/2014 3:01:30 AM","None"
"16905","The Western Union Company","","","","","12/3/2014 3:01:30 AM","None"
"16906","The WhiteWave Foods Company","","","","","12/3/2014 3:01:30 AM","None"
"16907","The Wright Group Services","","","","","12/3/2014 3:01:30 AM","None"
"16908","Thistle Communities","","","","","12/3/2014 3:01:30 AM","None"
"16909","Thomson Reuters","","","","","12/3/2014 3:01:30 AM","None"
"16910","Thule Group","","","","","12/3/2014 3:01:30 AM","None"
"16911","ThyssenKrupp","","","","","12/3/2014 3:01:30 AM","None"
"16912","TIMCO Aviation Services","","","","","12/3/2014 3:01:30 AM","None"
"16913","Time Warner Cable Business Class","","","","","12/3/2014 3:01:30 AM","None"
"16914","Tindall Corporation","","","","","12/3/2014 3:01:30 AM","None"
"16915","Top Gun Recruiting Partners","","","","","12/3/2014 3:01:30 AM","None"
"16916","Total Call International Inc.","","","","","12/3/2014 3:01:30 AM","None"
"16917","Town of Frisco","","","","","12/3/2014 3:01:30 AM","None"
"16918","Town of Platteville","","","","","12/3/2014 3:01:30 AM","None"
"16919","Trace Construction LLC","","","","","12/3/2014 3:01:30 AM","None"
"16920","Trace Staffing-Temp to Hire","","","","","12/3/2014 3:01:30 AM","None"
"16921","TrackVia Inc.","","","","","12/3/2014 3:01:30 AM","None"
"16922","TradeForce Staffing Solutions","","","","","12/3/2014 3:01:30 AM","None"
"16923","TransFirst Merchant Services","","","","","12/3/2014 3:01:30 AM","None"
"16924","TransMontaigne","","","","","12/3/2014 3:01:30 AM","None"
"16925","Trapp Associates Ltd.","","","","","12/3/2014 3:01:30 AM","None"
"16926","TRBG LLC","","","","","12/3/2014 3:01:30 AM","None"
"16927","Trelleborg Sealing Solutions","","","","","12/3/2014 3:01:30 AM","None"
"16928","Triangle Petroleum Corporation","","","","","12/3/2014 3:01:30 AM","None"
"16929","Trident Consulting LLC","","","","","12/3/2014 3:01:30 AM","None"
"16930","Trillium Driver Solutions Inc.","","","","","12/3/2014 3:01:30 AM","None"
"16931","Trimble Navigation","","","","","12/3/2014 3:01:30 AM","None"
"16932","Trinet SOI","","","","","12/3/2014 3:01:30 AM","None"
"16933","Trinidad Drilling LP","","","","","12/3/2014 3:01:30 AM","None"
"16934","Triple Transport Inc.","","","","","12/3/2014 3:01:30 AM","None"
"16935","TriWorth","","","","","12/3/2014 3:01:30 AM","None"
"16936","TriZetto Corporation","","","","","12/3/2014 3:01:30 AM","None"
"16937","Trojan General Contracting LLC","","","","","12/3/2014 3:01:30 AM","None"
"16938","TrueBridge Resources","","","","","12/3/2014 3:01:30 AM","None"
"16939","TrueBridge Resources A North Highland Company","","","","","12/3/2014 3:01:30 AM","None"
"16940","Truli Media Group LLC","","","","","12/3/2014 3:01:30 AM","None"
"16941","Trulia","","","","","12/3/2014 3:01:30 AM","None"
"16942","TRW","","","","","12/3/2014 3:01:30 AM","None"
"16943","TRW Resources LLC","","","","","12/3/2014 3:01:30 AM","None"
"16944","TTY Career College Inc.","","","","","12/3/2014 3:01:30 AM","None"
"16945","Tundra Restaurant Supply","","","","","12/3/2014 3:01:30 AM","None"
"16946","Turbine Technologies Inc.","","","","","12/3/2014 3:01:30 AM","None"
"16947","Turner Trucking Co.","","","","","12/3/2014 3:01:30 AM","None"
"16948","TW Telecom","","","","","12/3/2014 3:01:30 AM","None"
"16949","tw telecom inc.","","","","","12/3/2014 3:01:30 AM","None"
"16950","Twin Cities Community Hospital","","","","","12/3/2014 3:01:30 AM","None"
"16951","Twin Eagle Resource Management LLC / Enserco Energ","","","","","12/3/2014 3:01:30 AM","None"
"16952","Tyco","","","","","12/3/2014 3:01:30 AM","None"
"16953","Tyco Integrated Security","","","","","12/3/2014 3:01:30 AM","None"
"16954","U.S. Bank","","","","","12/3/2014 3:01:30 AM","None"
"16955","Ubisense","","","","","12/3/2014 3:01:30 AM","None"
"16956","UBS Financial Services Inc.","","","","","12/3/2014 3:01:30 AM","None"
"16957","UCLA Health","","","","","12/3/2014 3:01:30 AM","None"
"16958","UDR","","","","","12/3/2014 3:01:30 AM","None"
"16959","UE Compression LLC","","","","","12/3/2014 3:01:30 AM","None"
"16960","Ulteig","","","","","12/3/2014 3:01:30 AM","None"
"16961","Unda Arte | The Sublunar Society | Unda Sonora","","","","","12/3/2014 3:01:30 AM","None"
"16962","Under Armour","","","","","12/3/2014 3:01:30 AM","None"
"16963","Uniform Technology","","","","","12/3/2014 3:01:30 AM","None"
"16964","UniGroup Logistics","","","","","12/3/2014 3:01:30 AM","None"
"16965","United Nations Foundation","","","","","12/3/2014 3:01:30 AM","None"
"16966","United States Air Force","","","","","12/3/2014 3:01:30 AM","None"
"16967","United States Postal Service","","","","","12/3/2014 3:01:30 AM","None"
"16968","United Technologies Corporation","","","","","12/3/2014 3:01:30 AM","None"
"16969","United Treating and Distribution","","","","","12/3/2014 3:01:30 AM","None"
"16970","UnitedHealth Group","","","","","12/3/2014 3:01:30 AM","None"
"16971","UnitedHealth Group (Optum)","","","","","12/3/2014 3:01:30 AM","None"
"16972","University of Colorado at Colorado Springs","","","","","12/3/2014 3:01:30 AM","None"
"16973","University of Colorado Boulder","","","","","12/3/2014 3:01:30 AM","None"
"16974","University of Colorado Health","","","","","12/3/2014 3:01:30 AM","None"
"16975","University of Denver","","","","","12/3/2014 3:01:30 AM","None"
"16976","University of Michigan","","","","","12/3/2014 3:01:30 AM","None"
"16977","UNO PEACE KEEPING FORCE","","","","","12/3/2014 3:01:30 AM","None"
"16978","Urban Lending Solutions","","","","","12/3/2014 3:01:30 AM","None"
"16979","Urban Lending Solutions LLC","","","","","12/3/2014 3:01:30 AM","None"
"16980","Urban Recruiting & Consulting LLC","","","","","12/3/2014 3:01:30 AM","None"
"16981","URS Corporation","","","","","12/3/2014 3:01:30 AM","None"
"16982","US Army","","","","","12/3/2014 3:01:30 AM","None"
"16983","US Army Engineer","","","","","12/3/2014 3:01:30 AM","None"
"16984","US Bank/ Elavon","","","","","12/3/2014 3:01:30 AM","None"
"16985","US Fish and Wildlife Service","","","","","12/3/2014 3:01:30 AM","None"
"16986","US NAVY","","","","","12/3/2014 3:01:30 AM","None"
"16987","USAA","","","","","12/3/2014 3:01:30 AM","None"
"16988","USOncology","","","","","12/3/2014 3:01:30 AM","None"
"16989","Utah Department of Workforce Services","","","","","12/3/2014 3:01:30 AM","None"
"16990","Vail Associates","","","","","12/3/2014 3:01:30 AM","None"
"16991","Vail Marriott Mountain Resort","","","","","12/3/2014 3:01:30 AM","None"
"16992","Vail Marriott Mountain Resort & Spa","","","","","12/3/2014 3:01:30 AM","None"
"16993","Vail Resorts","","","","","12/3/2014 3:01:30 AM","None"
"16994","Vail Resorts - Beaver Creek Resort Properties","","","","","12/3/2014 3:01:30 AM","None"
"16995","Vail Resorts Development Company","","","","","12/3/2014 3:01:30 AM","None"
"16996","Vail Resorts Inc.","","","","","12/3/2014 3:01:30 AM","None"
"16997","Vail Resorts Retail","","","","","12/3/2014 3:01:30 AM","None"
"16998","Vail Resorts SSV","","","","","12/3/2014 3:01:30 AM","None"
"16999","Vail Valley Foundation","","","","","12/3/2014 3:01:30 AM","None"
"17000","Valant & Co.","","","","","12/3/2014 3:01:30 AM","None"
"17001","Valdez International Corporation","","","","","12/3/2014 3:01:30 AM","None"
"17002","Valmont Site Pro 1","","","","","12/3/2014 3:01:30 AM","None"
"17003","Valoure Inc.","","","","","12/3/2014 3:01:30 AM","None"
"17004","Vantiv","","","","","12/3/2014 3:01:30 AM","None"
"17005","Various","","","","","12/3/2014 3:01:30 AM","None"
"17006","Various Business School","","","","","12/3/2014 3:01:30 AM","None"
"17007","Various Clients","","","","","12/3/2014 3:01:30 AM","None"
"17008","Various Non-Profit Organizations","","","","","12/3/2014 3:01:30 AM","None"
"17009","vAuto&#39;s Genius Labs- Auction Genius/Kelley Blu","","","","","12/3/2014 3:01:30 AM","None"
"17010","Vectra Bank Colorado","","","","","12/3/2014 3:01:30 AM","None"
"17011","Velocity Staff","","","","","12/3/2014 3:01:30 AM","None"
"17012","Velocity Werks","","","","","12/3/2014 3:01:30 AM","None"
"17013","Vericour","","","","","12/3/2014 3:01:30 AM","None"
"17014","Verizon Wireless","","","","","12/3/2014 3:01:30 AM","None"
"17015","Versatile Experienced Financial Professional","","","","","12/3/2014 3:01:30 AM","None"
"17016","Vertafore","","","","","12/3/2014 3:01:30 AM","None"
"17017","Vertex McGlamery","","","","","12/3/2014 3:01:30 AM","None"
"17018","Vertiba","","","","","12/3/2014 3:01:30 AM","None"
"17019","Vestas","","","","","12/3/2014 3:01:30 AM","None"
"17020","Veteran&#39;s Passport to Hope","","","","","12/3/2014 3:01:31 AM","None"
"17021","Vexcel Corporation","","","","","12/3/2014 3:01:31 AM","None"
"17022","VFW District 3","","","","","12/3/2014 3:01:31 AM","None"
"17023","Vi at Highlands Ranch","","","","","12/3/2014 3:01:31 AM","None"
"17024","Viaero Wireless","","","","","12/3/2014 3:01:31 AM","None"
"17025","ViaWest","","","","","12/3/2014 3:01:31 AM","None"
"17026","VIIAD Systems LLC","","","","","12/3/2014 3:01:31 AM","None"
"17027","Virginia Mason Medical Center","","","","","12/3/2014 3:01:31 AM","None"
"17028","Viridian Energy","","","","","12/3/2014 3:01:31 AM","None"
"17029","Visa","","","","","12/3/2014 3:01:31 AM","None"
"17030","Vision Technology Services","","","","","12/3/2014 3:01:31 AM","None"
"17031","Visual Products Corporation","","","","","12/3/2014 3:01:31 AM","None"
"17032","VMware","","","","","12/3/2014 3:01:31 AM","None"
"17033","VOLT","","","","","12/3/2014 3:01:31 AM","None"
"17034","Volt Information Sciences","","","","","12/3/2014 3:01:31 AM","None"
"17035","Volt Services Group","","","","","12/3/2014 3:01:31 AM","None"
"17036","Volt Workforce Solutions","","","","","12/3/2014 3:01:31 AM","None"
"17037","Voqal","","","","","12/3/2014 3:01:31 AM","None"
"17038","V-Soft Consulting Group Inc.","","","","","12/3/2014 3:01:31 AM","None"
"17039","WA Consultants","","","","","12/3/2014 3:01:31 AM","None"
"17040","Walgreens","","","","","12/3/2014 3:01:31 AM","None"
"17041","Walmart","","","","","12/3/2014 3:01:31 AM","None"
"17042","Walmart eCommerce","","","","","12/3/2014 3:01:31 AM","None"
"17043","Walmart Stores Inc.","","","","","12/3/2014 3:01:31 AM","None"
"17044","Warbird Consulting Partners LLC","","","","","12/3/2014 3:01:31 AM","None"
"17045","Waste Connections Inc.","","","","","12/3/2014 3:01:31 AM","None"
"17046","Waste Management","","","","","12/3/2014 3:01:31 AM","None"
"17047","Waste Management - Sustainable Services","","","","","12/3/2014 3:01:31 AM","None"
"17048","Watermark Research Partners Inc.","","","","","12/3/2014 3:01:31 AM","None"
"17049","Watson Sage Business Services LLC","","","","","12/3/2014 3:01:31 AM","None"
"17050","Weatherford","","","","","12/3/2014 3:01:31 AM","None"
"17051","Web n Host","","","","","12/3/2014 3:01:31 AM","None"
"17052","WebBank","","","","","12/3/2014 3:01:31 AM","None"
"17053","Weingartz","","","","","12/3/2014 3:01:31 AM","None"
"17054","Well Master Corporation","","","","","12/3/2014 3:01:31 AM","None"
"17055","WellPoint","","","","","12/3/2014 3:01:31 AM","None"
"17056","Western Fuels Association Inc.","","","","","12/3/2014 3:01:31 AM","None"
"17057","Western Governors University","","","","","12/3/2014 3:01:31 AM","None"
"17058","Western Union","","","","","12/3/2014 3:01:31 AM","None"
"17059","WestwoodOne","","","","","12/3/2014 3:01:31 AM","None"
"17060","Whelan Security","","","","","12/3/2014 3:01:31 AM","None"
"17061","wherry family practice","","","","","12/3/2014 3:01:31 AM","None"
"17062","White & White P.C.","","","","","12/3/2014 3:01:31 AM","None"
"17064","WhiteWave Foods","","","","","12/3/2014 3:01:31 AM","None"
"17065","Whiting Petroleum Corporation","","","","","12/3/2014 3:01:31 AM","None"
"17066","Wickham Consulting","","","","","12/3/2014 3:01:31 AM","None"
"17067","Wilson Media Group","","","","","12/3/2014 3:01:31 AM","None"
"17068","WIN Home Inspection Mountain View","","","","","12/3/2014 3:01:31 AM","None"
"17069","Windsor-Severance Fire Protection District","","","","","12/3/2014 3:01:31 AM","None"
"17070","Wipro","","","","","12/3/2014 3:01:31 AM","None"
"17071","Wipro Technologies","","","","","12/3/2014 3:01:31 AM","None"
"17072","Woodward Inc.","","","","","12/3/2014 3:01:31 AM","None"
"17073","Workforce Insight","","","","","12/3/2014 3:01:31 AM","None"
"17074","Workiva (formerly WebFilings)","","","","","12/3/2014 3:01:31 AM","None"
"17075","Workwell Occupational Medicine","","","","","12/3/2014 3:01:31 AM","None"
"17076","World Boxing Council","","","","","12/3/2014 3:01:31 AM","None"
"17077","WorldatWork","","","","","12/3/2014 3:01:31 AM","None"
"17078","Worldleaders","","","","","12/3/2014 3:01:31 AM","None"
"17079","Worldleaders Sales Solutions","","","","","12/3/2014 3:01:31 AM","None"
"17080","Worldwide Real Estate & Relocation Corporation DBA","","","","","12/3/2014 3:01:31 AM","None"
"17081","WOW! Cable Internet and Phone","","","","","12/3/2014 3:01:31 AM","None"
"17082","WPX Energy","","","","","12/3/2014 3:01:31 AM","None"
"17083","Wraptastic Transformations with TJ - ItWorks Globa","","","","","12/3/2014 3:01:31 AM","None"
"17084","www.AvidAutismAdvocates.com","","","","","12/3/2014 3:01:31 AM","None"
"17085","Xcel Energy","","","","","12/3/2014 3:01:31 AM","None"
"17086","X-Chem","","","","","12/3/2014 3:01:31 AM","None"
"17087","Xclusive Staffing","","","","","12/3/2014 3:01:31 AM","None"
"17088","Xerox","","","","","12/3/2014 3:01:31 AM","None"
"17089","XO Communications","","","","","12/3/2014 3:01:31 AM","None"
"17090","Xponential Growth Solutions","","","","","12/3/2014 3:01:31 AM","None"
"17091","XTO Energy","","","","","12/3/2014 3:01:31 AM","None"
"17092","Y.E.S. - Yritys Executive Services","","","","","12/3/2014 3:01:31 AM","None"
"17093","Yoh A Day & Zimmermann Company","","","","","12/3/2014 3:01:31 AM","None"
"17094","Young West Consulting","","","","","12/3/2014 3:01:31 AM","None"
"17095","Your Castle Real Estate","","","","","12/3/2014 3:01:31 AM","None"
"17096","Your Castle Real Estate LLC","","","","","12/3/2014 3:01:31 AM","None"
"17097","Yuma Regional Medical Center","","","","","12/3/2014 3:01:31 AM","None"
"17099","Zayo Bandwidth","","","","","12/3/2014 3:01:31 AM","None"
"17100","Zayo Group","","","","","12/3/2014 3:01:31 AM","None"
"17101","Zeta Interactive","","","","","12/3/2014 3:01:31 AM","None"
"17102","Zocalo Community Development","","","","","12/3/2014 3:01:31 AM","None"
"17103","Zoetic Group","","","","","12/3/2014 3:01:31 AM","None"
"17104","ZOLOTO INDUSTRIES.","","","","","12/3/2014 3:01:31 AM","None"
"17105","Zymergen Inc.","","","","","12/3/2014 3:01:31 AM","None"
"17140","PriyaSharma321","111111111111111111111111111111111111","(111) 111-1111 1111","","","12/15/2014 7:11:39 AM","Partner"
"17143","HOEC New","Delhi","(545) 465-4564 5615","Delhi","25858","12/16/2014 5:41:44 AM","Investor"
"17144","Dave Infotech","","","","","12/16/2014 6:57:24 AM","None"
"17173","Reliance","","(545) 645-4564 5646","ksdjfjk","25874","12/26/2014 11:49:56 PM","Investor"
"17183","Tata","","","","","12/29/2014 12:15:33 AM","None"
"17184","sheetal industries","","","","","12/29/2014 1:55:23 AM","None"
"17186","info1","","","","","1/3/2015 7:07:27 PM","None"
"17187","IEL","","","","","1/5/2015 6:25:41 PM","None"
"17188","sonata","","","","","1/5/2015 6:42:48 PM","None"
"17189","CMC1","","","","","1/9/2015 11:01:02 AM","None"
"17190","CMC","","(123) 456-7893","","","1/9/2015 12:09:34 PM","None"
"17191","cyient","","","","","1/9/2015 6:16:51 PM","None"
"17192","Conferra","","","","","1/9/2015 6:18:24 PM","None"
"17193","pyro","","","","","1/9/2015 6:35:02 PM","None"
"17194","pyro1","","","","","1/9/2015 6:35:52 PM","None"
"17195","Reuters","","","","","1/9/2015 6:49:23 PM","None"
"17196","pyro2","","","","","1/9/2015 7:04:14 PM","None"
"17197","Next Sphere","www.nextsphere.com","(123) 456-7895","","","1/13/2015 10:46:17 AM","Customer"
"17198","Neerus","www.neerus.com","(123) 456-7895","","","1/13/2015 11:01:27 AM","Prospect"
"17199","Next Sphere1","","","","","1/13/2015 11:14:52 AM","None"
"17200","Neerus1","","","","","1/13/2015 11:16:54 AM","None"
"17201","Neerus2","","","","","1/13/2015 11:18:03 AM","None"
"17202","Neerus3","","","","","1/13/2015 11:23:19 AM","None"
"17203","Apptrino","","(978) 274-5703","Dallas","75206","1/13/2015 3:24:58 PM","None"
"17204","Piltd","","(972) 464-4300","Plano","12345-1234","1/13/2015 3:24:58 PM","None"
"17208","IBM","","","","","1/17/2015 2:16:44 PM","None"
"17209","Cognizant","","","","","1/17/2015 2:20:50 PM","None"
"17210","aspire","","","","","1/17/2015 7:17:42 PM","None"
"17211","Boadridge","www.boadridge.com","(123) 456-7895","","","1/19/2015 4:40:41 PM","Competitor"
"17212","aspire1","","","","","1/19/2015 5:03:22 PM","None"
"17277","Arshiya","","(123)456-7890","","","5/22/2015 6:31:05 PM",""
"118096","seimens11","www.seimens.com","(111)111-1111","Hyderabad","11111-1111","9/8/2015 11:32:40 AM","Analyst"
